ID,long,lat,weight,location,commune,district,voivodeship
212329303,20.498333,50.0569166,C,Bogucice,Bochnia,bocheński,MAŁOPOLSKIE
207124652,20.3197493,49.952,C,Bogucice,Bochnia,bocheński,MAŁOPOLSKIE
207216712,20.4272771,49.9746937,L,Bogucice,Bochnia,bocheński,MAŁOPOLSKIE
212236155,20.4301382,49.9895274,L,Bogucice,Bochnia,bocheński,MAŁOPOLSKIE
207160877,20.4306104,49.9966941,L,Bogucice,Bochnia,bocheński,MAŁOPOLSKIE
207375715,20.4264993,49.9769437,L,Bochnia,Bochnia,bocheński,MAŁOPOLSKIE
212298568,20.448083,50.0018888,L,Bochnia,Bochnia,bocheński,MAŁOPOLSKIE
212282381,20.4370552,49.9815271,L,Bochnia,Bochnia,bocheński,MAŁOPOLSKIE
212096002,20.4364163,49.9765271,L,Bochnia,Bochnia,bocheński,MAŁOPOLSKIE
212324345,20.4312493,49.9744715,L,Bochnia,Bochnia,bocheński,MAŁOPOLSKIE
212362318,20.4344996,50.1001111,L,Drwinia,Drwinia,bocheński,MAŁOPOLSKIE
207179831,20.4587222,50.0561111,L,Drwinia,Drwinia,bocheński,MAŁOPOLSKIE
212268892,20.5046944,49.8803326,C,Lipnica Górna,Lipnica Murowana,bocheński,MAŁOPOLSKIE
212145206,20.3025,49.8277215,L,Tarnawa,Łapanów,bocheński,MAŁOPOLSKIE
212304410,20.4704715,49.9158055,L,Stary Wiśnicz,Nowy Wiśnicz,bocheński,MAŁOPOLSKIE
212269582,20.4393885,49.85575,C,Stary Wiśnicz,Nowy Wiśnicz,bocheński,MAŁOPOLSKIE
212145025,20.4944996,49.9291104,C,Stary Wiśnicz,Nowy Wiśnicz,bocheński,MAŁOPOLSKIE
212284268,20.4927218,49.9407218,L,Stary Wiśnicz,Nowy Wiśnicz,bocheński,MAŁOPOLSKIE
212295027,20.4853885,49.9882218,C,Krzeczów,Rzezawa,bocheński,MAŁOPOLSKIE
212359330,20.3331937,49.8596666,C,Trzciana,Trzciana,bocheński,MAŁOPOLSKIE
207316720,20.471416,49.8002777,L,Bytomsko,Żegocina,bocheński,MAŁOPOLSKIE
212099790,20.3888052,49.8215826,L,Bytomsko,Żegocina,bocheński,MAŁOPOLSKIE
207292400,20.7396107,50.0126111,L,Bielcza,Borzęcin,brzeski,MAŁOPOLSKIE
207400493,20.6144444,49.9740826,C,Brzesko,Brzesko,brzeski,MAŁOPOLSKIE
212280307,20.599083,49.9773326,C,Brzesko,Brzesko,brzeski,MAŁOPOLSKIE
207339447,20.6110277,49.9698326,L,Brzesko,Brzesko,brzeski,MAŁOPOLSKIE
207396708,20.6254437,49.9685271,L,Brzesko,Brzesko,brzeski,MAŁOPOLSKIE
212051376,20.6178048,50.0001944,C,Mokrzyska,Brzesko,brzeski,MAŁOPOLSKIE
207238790,20.6482496,49.96575,L,Mokrzyska,Brzesko,brzeski,MAŁOPOLSKIE
207146927,20.6778048,49.9952218,L,Mokrzyska,Brzesko,brzeski,MAŁOPOLSKIE
207207330,20.7008055,50.0060555,L,Mokrzyska,Brzesko,brzeski,MAŁOPOLSKIE
207390229,20.7511388,49.9426107,C,Sufczyn,Dębno,brzeski,MAŁOPOLSKIE
212273598,20.7507222,49.9645,L,Sufczyn,Dębno,brzeski,MAŁOPOLSKIE
207219131,20.5731382,49.8552222,L,Gosprzydowa,Gnojnik,brzeski,MAŁOPOLSKIE
212121370,20.6332771,50.0788882,S,Rudy-Rysie,Szczurowa,brzeski,MAŁOPOLSKIE
207253583,20.6127777,50.1229993,L,Rudy-Rysie,Szczurowa,brzeski,MAŁOPOLSKIE
212275456,20.6359996,50.0675548,L,Rudy-Rysie,Szczurowa,brzeski,MAŁOPOLSKIE
212035045,19.5294993,50.080916,S,Regulice,Alwernia,chrzanowski,MAŁOPOLSKIE
207320501,19.549333,50.0606388,L,Regulice,Alwernia,chrzanowski,MAŁOPOLSKIE
212296512,19.4113888,50.0969996,L,Regulice,Alwernia,chrzanowski,MAŁOPOLSKIE
207369474,19.5115277,50.034833,L,Regulice,Alwernia,chrzanowski,MAŁOPOLSKIE
212376809,19.3716382,50.1320271,C,Chrzanów,Chrzanów,chrzanowski,MAŁOPOLSKIE
207368247,19.4432218,50.1351663,L,Chrzanów,Chrzanów,chrzanowski,MAŁOPOLSKIE
207210925,19.3702215,50.1293326,L,Chrzanów,Chrzanów,chrzanowski,MAŁOPOLSKIE
212358138,19.4158333,50.1419163,L,Chrzanów,Chrzanów,chrzanowski,MAŁOPOLSKIE
207102935,19.4145555,50.1334996,L,Chrzanów,Chrzanów,chrzanowski,MAŁOPOLSKIE
207126326,19.4089444,50.1341385,L,Chrzanów,Chrzanów,chrzanowski,MAŁOPOLSKIE
207150956,19.4014166,50.1399996,L,Chrzanów,Chrzanów,chrzanowski,MAŁOPOLSKIE
207245938,19.3776937,50.1484996,L,Chrzanów,Chrzanów,chrzanowski,MAŁOPOLSKIE
212288506,19.4610277,50.0934996,L,Chrzanów,Chrzanów,chrzanowski,MAŁOPOLSKIE
207368622,19.3353885,50.0858607,L,Żarki,Libiąż,chrzanowski,MAŁOPOLSKIE
207255320,19.3294715,50.096833,L,Libiąż,Libiąż,chrzanowski,MAŁOPOLSKIE
212177427,19.3341941,50.1083055,L,Libiąż,Libiąż,chrzanowski,MAŁOPOLSKIE
207123493,19.4713048,50.2073888,L,Czyżówka,Trzebinia,chrzanowski,MAŁOPOLSKIE
212325289,19.4583611,50.1665,L,Trzebinia,Trzebinia,chrzanowski,MAŁOPOLSKIE
207159515,19.46525,50.1433607,L,Trzebinia,Trzebinia,chrzanowski,MAŁOPOLSKIE
212087848,20.9874718,50.1757493,L,Dąbrowa Tarnowska,Dąbrowa Tarnowska,dąbrowski,MAŁOPOLSKIE
207157652,20.9874441,50.1756937,C,Szarwark,Dąbrowa Tarnowska,dąbrowski,MAŁOPOLSKIE
212296789,20.9899163,50.1769993,L,Gręboszów,Gręboszów,dąbrowski,MAŁOPOLSKIE
207398487,20.7859163,50.232666,L,Gręboszów,Gręboszów,dąbrowski,MAŁOPOLSKIE
207193278,20.9285826,50.2000277,C,Olesno,Olesno,dąbrowski,MAŁOPOLSKIE
212152335,20.9192771,50.2323326,L,Olesno,Olesno,dąbrowski,MAŁOPOLSKIE
207419297,20.9053055,50.2283882,L,Olesno,Olesno,dąbrowski,MAŁOPOLSKIE
212205913,20.9445552,50.1808604,L,Olesno,Olesno,dąbrowski,MAŁOPOLSKIE
207155742,21.0930274,50.2807493,L,Zabrnie,Szczucin,dąbrowski,MAŁOPOLSKIE
212317036,21.1336941,50.345583,L,Zabrnie,Szczucin,dąbrowski,MAŁOPOLSKIE
207202636,20.9170826,49.6974996,C,Jankowa,Bobowa,gorlicki,MAŁOPOLSKIE
212319393,20.9116111,49.7154166,L,Jankowa,Bobowa,gorlicki,MAŁOPOLSKIE
207232254,21.1553611,49.6683882,L,Gorlice,Gorlice,gorlicki,MAŁOPOLSKIE
212305374,21.1498607,49.6610277,L,Gorlice,Gorlice,gorlicki,MAŁOPOLSKIE
207193387,21.1456107,49.6425552,L,Gorlice,Gorlice,gorlicki,MAŁOPOLSKIE
212099892,21.2858885,49.6375274,L,Rozdziele,Lipinki,gorlicki,MAŁOPOLSKIE
212133505,20.9998607,49.727416,C,Biesna,Łużna,gorlicki,MAŁOPOLSKIE
212254819,21.0256104,49.684583,L,Biesna,Łużna,gorlicki,MAŁOPOLSKIE
212228404,21.0325548,49.5775548,L,Ropa,Ropa,gorlicki,MAŁOPOLSKIE
207115700,21.045333,49.5851385,L,Ropa,Ropa,gorlicki,MAŁOPOLSKIE
207295053,20.2172771,50.0845274,S,Pobiednik Wielki,Igołomia-Wawrzeńczyce,krakowski,MAŁOPOLSKIE
207367397,20.0064722,50.2046666,C,Widoma,Iwanowice,krakowski,MAŁOPOLSKIE
207392249,19.4456941,50.1234437,L,Jerzmanowice,Jerzmanowice-Przeginia,krakowski,MAŁOPOLSKIE
212087391,20.087583,50.1509444,C,Baranówka,Kocmyrzów-Luborzyca,krakowski,MAŁOPOLSKIE
207084275,19.6050833,50.1304437,C,Wola Filipowska,Krzeszowice,krakowski,MAŁOPOLSKIE
207201320,19.7632777,50.058,L,Cholerzyn,Liszki,krakowski,MAŁOPOLSKIE
207404242,19.7837496,50.0521944,L,Cholerzyn,Liszki,krakowski,MAŁOPOLSKIE
207101135,19.8337218,49.9866107,C,Skawina,Skawina,krakowski,MAŁOPOLSKIE
207142120,19.8168048,49.9758048,C,Skawina,Skawina,krakowski,MAŁOPOLSKIE
212117699,19.7760271,49.9037777,C,Wola Radziszowska,Skawina,krakowski,MAŁOPOLSKIE
207148778,19.9814437,49.9315548,L,Rzeszotary,Świątniki Górne,krakowski,MAŁOPOLSKIE
212182988,19.8437496,50.1760548,C,Prądnik Korzkiewski,Wielka Wieś,krakowski,MAŁOPOLSKIE
207280151,19.8372218,50.1492774,C,Prądnik Korzkiewski,Wielka Wieś,krakowski,MAŁOPOLSKIE
212126936,19.7647222,50.1507777,C,Kobylany,Zabierzów,krakowski,MAŁOPOLSKIE
207370619,19.7123055,50.1217493,C,Kobylany,Zabierzów,krakowski,MAŁOPOLSKIE
212122939,19.7123611,50.1218326,L,Kobylany,Zabierzów,krakowski,MAŁOPOLSKIE
207122008,20.0451941,50.044333,C,Kraków,Kraków,Kraków,MAŁOPOLSKIE
207127414,19.9091944,50.047833,C,Kraków,Kraków,Kraków,MAŁOPOLSKIE
207153018,19.9982774,50.0741382,C,Kraków,Kraków,Kraków,MAŁOPOLSKIE
207161650,19.9286937,50.0598611,C,Kraków,Kraków,Kraków,MAŁOPOLSKIE
207169497,19.9544166,50.0478052,C,Kraków,Kraków,Kraków,MAŁOPOLSKIE
207193093,19.936833,50.0289993,C,Kraków,Kraków,Kraków,MAŁOPOLSKIE
207206040,19.9835274,50.0709437,C,Kraków,Kraków,Kraków,MAŁOPOLSKIE
207216832,19.9667493,50.0969996,C,Kraków,Kraków,Kraków,MAŁOPOLSKIE
207265357,19.936333,50.0709993,C,Kraków,Kraków,Kraków,MAŁOPOLSKIE
207273989,19.9464441,50.0573055,C,Kraków,Kraków,Kraków,MAŁOPOLSKIE
207276094,20.1843607,50.0801937,C,Kraków,Kraków,Kraków,MAŁOPOLSKIE
207282884,19.9358885,50.0412496,C,Kraków,Kraków,Kraków,MAŁOPOLSKIE
207351782,19.9215271,50.0808326,C,Kraków,Kraków,Kraków,MAŁOPOLSKIE
207362644,19.9596944,50.0541388,C,Kraków,Kraków,Kraków,MAŁOPOLSKIE
207377488,19.9845274,50.0631111,C,Kraków,Kraków,Kraków,MAŁOPOLSKIE
207382623,19.9339996,50.0356107,C,Kraków,Kraków,Kraków,MAŁOPOLSKIE
207406918,19.9118888,50.0310548,C,Kraków,Kraków,Kraków,MAŁOPOLSKIE
207408794,19.9450552,50.0645833,C,Kraków,Kraków,Kraków,MAŁOPOLSKIE
212039964,19.9416663,50.0599722,C,Kraków,Kraków,Kraków,MAŁOPOLSKIE
212053692,20.0045277,50.0393885,C,Kraków,Kraków,Kraków,MAŁOPOLSKIE
212081338,19.9061388,50.0569166,C,Kraków,Kraków,Kraków,MAŁOPOLSKIE
212109035,20.0435274,50.0077222,C,Kraków,Kraków,Kraków,MAŁOPOLSKIE
212233554,19.9264437,50.0096666,C,Kraków,Kraków,Kraków,MAŁOPOLSKIE
212249571,19.9791382,50.1001111,C,Kraków,Kraków,Kraków,MAŁOPOLSKIE
212271452,19.9807493,50.0696937,C,Kraków,Kraków,Kraków,MAŁOPOLSKIE
212302786,19.9994163,50.0842218,C,Kraków,Kraków,Kraków,MAŁOPOLSKIE
212327262,20.0453885,50.0982774,C,Kraków,Kraków,Kraków,MAŁOPOLSKIE
212331098,19.9052777,50.0893885,C,Kraków,Kraków,Kraków,MAŁOPOLSKIE
212350062,20.0127777,50.0163055,C,Kraków,Kraków,Kraków,MAŁOPOLSKIE
212352812,19.8952774,50.0877496,C,Kraków,Kraków,Kraków,MAŁOPOLSKIE
212356588,19.9416385,50.0599444,C,Kraków,Kraków,Kraków,MAŁOPOLSKIE
207050007,19.944833,50.0716382,L,Kraków,Kraków,Kraków,MAŁOPOLSKIE
207112349,19.9247215,50.0716382,L,Kraków,Kraków,Kraków,MAŁOPOLSKIE
207127638,19.9250826,50.0570277,L,Kraków,Kraków,Kraków,MAŁOPOLSKIE
207129816,19.9536388,50.0407774,L,Kraków,Kraków,Kraków,MAŁOPOLSKIE
207141242,20.0458885,50.0385552,L,Kraków,Kraków,Kraków,MAŁOPOLSKIE
207144953,20.0081944,50.0744715,L,Kraków,Kraków,Kraków,MAŁOPOLSKIE
207154304,19.974416,50.0668604,L,Kraków,Kraków,Kraków,MAŁOPOLSKIE
207158559,19.9987774,50.0133055,L,Kraków,Kraków,Kraków,MAŁOPOLSKIE
207159031,20.0179715,50.0849996,L,Kraków,Kraków,Kraków,MAŁOPOLSKIE
207160492,19.9182771,50.0447496,L,Kraków,Kraków,Kraków,MAŁOPOLSKIE
207163657,20.0165277,50.0059444,L,Kraków,Kraków,Kraków,MAŁOPOLSKIE
207168496,19.9786104,50.0772493,L,Kraków,Kraków,Kraków,MAŁOPOLSKIE
207171640,19.9629722,50.05925,L,Kraków,Kraków,Kraków,MAŁOPOLSKIE
207172581,20.0651111,50.0090555,L,Kraków,Kraków,Kraków,MAŁOPOLSKIE
207172599,20.0045833,50.1070555,L,Kraków,Kraków,Kraków,MAŁOPOLSKIE
207176824,19.9367496,50.0690271,L,Kraków,Kraków,Kraków,MAŁOPOLSKIE
207178674,20.00375,50.0897218,L,Kraków,Kraków,Kraków,MAŁOPOLSKIE
207182990,19.9913052,50.0253604,L,Kraków,Kraków,Kraków,MAŁOPOLSKIE
207183606,19.9418052,50.0598333,L,Kraków,Kraków,Kraków,MAŁOPOLSKIE
207185554,19.9336107,50.0631111,L,Kraków,Kraków,Kraków,MAŁOPOLSKIE
207186763,19.96375,50.0729993,L,Kraków,Kraków,Kraków,MAŁOPOLSKIE
207190936,19.9097777,50.0288882,L,Kraków,Kraków,Kraków,MAŁOPOLSKIE
207198960,19.8506944,50.0254993,L,Kraków,Kraków,Kraków,MAŁOPOLSKIE
207201303,19.935583,50.0499163,L,Kraków,Kraków,Kraków,MAŁOPOLSKIE
207205959,19.9634166,50.0543888,L,Kraków,Kraków,Kraków,MAŁOPOLSKIE
207205969,19.9669437,50.0847774,L,Kraków,Kraków,Kraków,MAŁOPOLSKIE
207206817,19.9451663,50.0666937,L,Kraków,Kraków,Kraków,MAŁOPOLSKIE
207209565,19.9454996,50.0645555,L,Kraków,Kraków,Kraków,MAŁOPOLSKIE
207212884,19.9059166,50.0578055,L,Kraków,Kraków,Kraków,MAŁOPOLSKIE
207218430,19.9626111,50.0182771,L,Kraków,Kraków,Kraków,MAŁOPOLSKIE
207225774,20.0455552,50.0551111,L,Kraków,Kraków,Kraków,MAŁOPOLSKIE
207231352,20.0521944,50.0760271,L,Kraków,Kraków,Kraków,MAŁOPOLSKIE
207244141,19.9316104,50.0672771,L,Kraków,Kraków,Kraków,MAŁOPOLSKIE
207245308,19.9238882,50.0591666,L,Kraków,Kraków,Kraków,MAŁOPOLSKIE
207253044,19.9672493,50.0061388,L,Kraków,Kraków,Kraków,MAŁOPOLSKIE
207261729,19.9948607,50.0204715,L,Kraków,Kraków,Kraków,MAŁOPOLSKIE
207265324,19.9450552,50.0646111,L,Kraków,Kraków,Kraków,MAŁOPOLSKIE
207282470,19.9312493,50.0726382,L,Kraków,Kraków,Kraków,MAŁOPOLSKIE
207288955,19.9524722,50.0716937,L,Kraków,Kraków,Kraków,MAŁOPOLSKIE
207299843,19.9884163,50.0894718,L,Kraków,Kraków,Kraków,MAŁOPOLSKIE
207367441,20.0076666,50.0936107,L,Kraków,Kraków,Kraków,MAŁOPOLSKIE
207371613,19.9953052,50.0209437,L,Kraków,Kraków,Kraków,MAŁOPOLSKIE
207378454,19.9736382,50.0667493,L,Kraków,Kraków,Kraków,MAŁOPOLSKIE
207380078,19.9238604,50.0591388,L,Kraków,Kraków,Kraków,MAŁOPOLSKIE
207387820,20.0328604,50.0181382,L,Kraków,Kraków,Kraków,MAŁOPOLSKIE
207398063,19.9422774,50.0357774,L,Kraków,Kraków,Kraków,MAŁOPOLSKIE
212061101,19.9858607,50.0698048,L,Kraków,Kraków,Kraków,MAŁOPOLSKIE
212070585,19.9240548,50.094083,L,Kraków,Kraków,Kraków,MAŁOPOLSKIE
212073385,20.0004722,50.0844996,L,Kraków,Kraków,Kraków,MAŁOPOLSKIE
212080971,19.9540277,50.0484996,L,Kraków,Kraków,Kraków,MAŁOPOLSKIE
212082324,19.9484163,50.0535833,L,Kraków,Kraków,Kraków,MAŁOPOLSKIE
212087918,19.9205826,50.0908607,L,Kraków,Kraków,Kraków,MAŁOPOLSKIE
212090620,19.9036944,50.0485552,L,Kraków,Kraków,Kraków,MAŁOPOLSKIE
212091346,20.0490552,50.0166388,L,Kraków,Kraków,Kraków,MAŁOPOLSKIE
212095912,19.9427218,50.0499718,L,Kraków,Kraków,Kraków,MAŁOPOLSKIE
212096873,19.9601666,50.0531666,L,Kraków,Kraków,Kraków,MAŁOPOLSKIE
212103307,19.9403052,50.0607222,L,Kraków,Kraków,Kraków,MAŁOPOLSKIE
212105244,19.9641388,50.048833,L,Kraków,Kraków,Kraków,MAŁOPOLSKIE
212117137,19.9182493,50.0569444,L,Kraków,Kraków,Kraków,MAŁOPOLSKIE
212140894,19.9466385,50.0744437,L,Kraków,Kraków,Kraków,MAŁOPOLSKIE
212151748,19.9118055,50.0314437,L,Kraków,Kraków,Kraków,MAŁOPOLSKIE
212157532,19.9254993,50.036833,L,Kraków,Kraków,Kraków,MAŁOPOLSKIE
212160982,19.9357774,50.0730271,L,Kraków,Kraków,Kraków,MAŁOPOLSKIE
212163948,19.9429718,50.1081388,L,Kraków,Kraków,Kraków,MAŁOPOLSKIE
212165919,19.9695271,50.0476663,L,Kraków,Kraków,Kraków,MAŁOPOLSKIE
212189913,20.0041388,50.0727493,L,Kraków,Kraków,Kraków,MAŁOPOLSKIE
212201519,20.018916,50.0844163,L,Kraków,Kraków,Kraków,MAŁOPOLSKIE
212232057,19.9106666,50.0464441,L,Kraków,Kraków,Kraków,MAŁOPOLSKIE
212237582,19.976916,50.0072222,L,Kraków,Kraków,Kraków,MAŁOPOLSKIE
212257065,20.0056111,50.0418607,L,Kraków,Kraków,Kraków,MAŁOPOLSKIE
212259840,19.9827771,50.0713604,L,Kraków,Kraków,Kraków,MAŁOPOLSKIE
212266623,20.0520833,50.065,L,Kraków,Kraków,Kraków,MAŁOPOLSKIE
212267434,19.9099166,50.0518333,L,Kraków,Kraków,Kraków,MAŁOPOLSKIE
212269243,19.9630277,50.0592777,L,Kraków,Kraków,Kraków,MAŁOPOLSKIE
212271819,20.0126111,50.0690826,L,Kraków,Kraków,Kraków,MAŁOPOLSKIE
212273297,20.0123333,50.0690271,L,Kraków,Kraków,Kraków,MAŁOPOLSKIE
212284497,19.9766937,50.0675826,L,Kraków,Kraków,Kraków,MAŁOPOLSKIE
212307184,19.928916,50.0301382,L,Kraków,Kraków,Kraków,MAŁOPOLSKIE
212307537,19.9314715,50.0484163,L,Kraków,Kraków,Kraków,MAŁOPOLSKIE
212314020,19.8960552,50.078416,L,Kraków,Kraków,Kraków,MAŁOPOLSKIE
212321288,19.8704993,50.0198048,L,Kraków,Kraków,Kraków,MAŁOPOLSKIE
212322763,19.9463052,50.0716382,L,Kraków,Kraków,Kraków,MAŁOPOLSKIE
212327690,19.9852774,50.0221937,L,Kraków,Kraków,Kraków,MAŁOPOLSKIE
212338567,19.9506666,50.0626111,L,Kraków,Kraków,Kraków,MAŁOPOLSKIE
212339897,19.9882496,50.0899718,L,Kraków,Kraków,Kraków,MAŁOPOLSKIE
212362610,19.9356107,50.0738048,L,Kraków,Kraków,Kraków,MAŁOPOLSKIE
207107280,19.9446107,50.0646666,C,Kraków,Kraków,Kraków,MAŁOPOLSKIE
207116663,19.9404441,50.0506944,C,Kraków,Kraków,Kraków,MAŁOPOLSKIE
207120198,19.9430274,50.06525,C,Kraków,Kraków,Kraków,MAŁOPOLSKIE
207171130,19.953,50.0651944,C,Kraków,Kraków,Kraków,MAŁOPOLSKIE
207222193,19.9645555,50.097083,C,Kraków,Kraków,Kraków,MAŁOPOLSKIE
207233731,19.9813604,50.069666,C,Kraków,Kraków,Kraków,MAŁOPOLSKIE
207242854,19.9408885,50.0225826,C,Kraków,Kraków,Kraków,MAŁOPOLSKIE
207257528,19.9713604,50.0848607,C,Kraków,Kraków,Kraków,MAŁOPOLSKIE
207279638,19.9533888,50.0503611,C,Kraków,Kraków,Kraków,MAŁOPOLSKIE
207292991,19.9207493,50.0424718,C,Kraków,Kraków,Kraków,MAŁOPOLSKIE
207352725,19.9113888,50.0942218,C,Kraków,Kraków,Kraków,MAŁOPOLSKIE
207362035,19.9733048,50.0803326,C,Kraków,Kraków,Kraków,MAŁOPOLSKIE
207367983,19.9243882,50.0403885,C,Kraków,Kraków,Kraków,MAŁOPOLSKIE
207368267,19.926166,50.0092222,C,Kraków,Kraków,Kraków,MAŁOPOLSKIE
207400411,19.9254715,50.0581111,C,Kraków,Kraków,Kraków,MAŁOPOLSKIE
207066580,19.911,50.019916,C,Kraków,Kraków,Kraków,MAŁOPOLSKIE
207148887,19.974666,50.0668882,C,Kraków,Kraków,Kraków,MAŁOPOLSKIE
207149441,19.9630277,50.0399996,C,Kraków,Kraków,Kraków,MAŁOPOLSKIE
207408888,19.9238882,50.0593888,C,Kraków,Kraków,Kraków,MAŁOPOLSKIE
212076442,19.9695826,50.0854441,C,Kraków,Kraków,Kraków,MAŁOPOLSKIE
212083876,19.9710271,50.0827215,C,Kraków,Kraków,Kraków,MAŁOPOLSKIE
212100780,19.9332493,50.0473607,C,Kraków,Kraków,Kraków,MAŁOPOLSKIE
212108173,19.9595,50.0580833,C,Kraków,Kraków,Kraków,MAŁOPOLSKIE
212109565,19.9181104,50.0601111,C,Kraków,Kraków,Kraków,MAŁOPOLSKIE
212116569,19.9336385,50.0631111,C,Kraków,Kraków,Kraków,MAŁOPOLSKIE
212146762,19.9828882,50.0401385,C,Kraków,Kraków,Kraków,MAŁOPOLSKIE
212183426,19.9314993,50.0304993,C,Kraków,Kraków,Kraków,MAŁOPOLSKIE
207151067,19.9499718,50.0874163,C,Kraków,Kraków,Kraków,MAŁOPOLSKIE
207152618,19.9329993,50.0634444,C,Kraków,Kraków,Kraków,MAŁOPOLSKIE
207159822,19.897583,50.0708326,C,Kraków,Kraków,Kraków,MAŁOPOLSKIE
207160840,19.96,50.0532777,C,Kraków,Kraków,Kraków,MAŁOPOLSKIE
207162181,19.9372496,50.0553333,C,Kraków,Kraków,Kraków,MAŁOPOLSKIE
207193895,20.0076666,50.0936385,C,Kraków,Kraków,Kraków,MAŁOPOLSKIE
207205362,19.9456107,50.0155,C,Kraków,Kraków,Kraków,MAŁOPOLSKIE
207220694,19.9827493,50.0714715,C,Kraków,Kraków,Kraków,MAŁOPOLSKIE
207221163,19.9479163,50.0881385,C,Kraków,Kraków,Kraków,MAŁOPOLSKIE
212185560,19.992833,50.0200548,C,Kraków,Kraków,Kraków,MAŁOPOLSKIE
212194544,19.9707215,50.0331382,C,Kraków,Kraków,Kraków,MAŁOPOLSKIE
212202605,19.8845552,50.0634166,C,Kraków,Kraków,Kraków,MAŁOPOLSKIE
212255755,19.9672215,50.0060833,C,Kraków,Kraków,Kraków,MAŁOPOLSKIE
212274734,19.9692493,50.0854441,C,Kraków,Kraków,Kraków,MAŁOPOLSKIE
212290363,19.9351663,50.0728326,C,Kraków,Kraków,Kraków,MAŁOPOLSKIE
212291858,19.9364718,50.0403607,C,Kraków,Kraków,Kraków,MAŁOPOLSKIE
212296334,19.9362774,50.05025,C,Kraków,Kraków,Kraków,MAŁOPOLSKIE
212304738,19.9444163,50.0573611,C,Kraków,Kraków,Kraków,MAŁOPOLSKIE
212317319,19.9139444,50.0657222,C,Kraków,Kraków,Kraków,MAŁOPOLSKIE
212348634,19.9437218,50.0704715,C,Kraków,Kraków,Kraków,MAŁOPOLSKIE
212351625,20.038333,50.0725548,C,Kraków,Kraków,Kraków,MAŁOPOLSKIE
207238843,19.9432218,50.0531388,C,Kraków,Kraków,Kraków,MAŁOPOLSKIE
207244362,19.9652222,50.0573055,C,Kraków,Kraków,Kraków,MAŁOPOLSKIE
207244572,19.9270826,50.0841107,C,Kraków,Kraków,Kraków,MAŁOPOLSKIE
207279110,19.933833,50.0467774,C,Kraków,Kraków,Kraków,MAŁOPOLSKIE
207298203,19.9795826,50.0683604,C,Kraków,Kraków,Kraków,MAŁOPOLSKIE
207352723,19.8168326,50.0035277,C,Kraków,Kraków,Kraków,MAŁOPOLSKIE
207364464,19.9362774,50.089083,C,Kraków,Kraków,Kraków,MAŁOPOLSKIE
211998110,19.9558888,50.0654166,C,Kraków,Kraków,Kraków,MAŁOPOLSKIE
207108950,19.9695271,50.0342218,C,Kraków,Kraków,Kraków,MAŁOPOLSKIE
207110265,20.0094722,50.0863885,C,Kraków,Kraków,Kraków,MAŁOPOLSKIE
207139956,19.9061388,50.0456663,C,Kraków,Kraków,Kraków,MAŁOPOLSKIE
207152444,19.8718326,49.988083,C,Kraków,Kraków,Kraków,MAŁOPOLSKIE
207166031,19.9039722,50.0483885,C,Kraków,Kraków,Kraków,MAŁOPOLSKIE
207172301,20.0407774,50.0893052,C,Kraków,Kraków,Kraków,MAŁOPOLSKIE
207180383,19.9023055,50.0621944,C,Kraków,Kraków,Kraków,MAŁOPOLSKIE
207186311,19.9042222,50.0724993,C,Kraków,Kraków,Kraków,MAŁOPOLSKIE
207188493,19.9281937,50.0526944,C,Kraków,Kraków,Kraków,MAŁOPOLSKIE
207201830,19.933333,50.0472774,C,Kraków,Kraków,Kraków,MAŁOPOLSKIE
207211454,20.0457218,50.0691937,C,Kraków,Kraków,Kraków,MAŁOPOLSKIE
207223549,19.9860552,50.0638888,C,Kraków,Kraków,Kraków,MAŁOPOLSKIE
207238712,19.9000555,50.0724715,C,Kraków,Kraków,Kraków,MAŁOPOLSKIE
207292668,19.9113333,50.0228326,C,Kraków,Kraków,Kraków,MAŁOPOLSKIE
207354215,19.9278882,50.0678882,C,Kraków,Kraków,Kraków,MAŁOPOLSKIE
207378001,19.9419163,50.0248604,C,Kraków,Kraków,Kraków,MAŁOPOLSKIE
211995717,19.9481385,50.0615833,C,Kraków,Kraków,Kraków,MAŁOPOLSKIE
212035835,19.8820826,50.0681104,C,Kraków,Kraków,Kraków,MAŁOPOLSKIE
212039583,19.9913607,50.017416,C,Kraków,Kraków,Kraków,MAŁOPOLSKIE
212050330,19.9543055,50.0860552,C,Kraków,Kraków,Kraków,MAŁOPOLSKIE
212073542,20.0075833,50.0939163,C,Kraków,Kraków,Kraków,MAŁOPOLSKIE
212095195,19.953,50.0852496,C,Kraków,Kraków,Kraków,MAŁOPOLSKIE
212116446,20.0360552,50.0384718,C,Kraków,Kraków,Kraków,MAŁOPOLSKIE
212134795,19.9331104,50.0752215,C,Kraków,Kraków,Kraków,MAŁOPOLSKIE
212136837,20.0459718,50.0603055,C,Kraków,Kraków,Kraków,MAŁOPOLSKIE
212139923,19.9258882,50.0378607,C,Kraków,Kraków,Kraków,MAŁOPOLSKIE
212140085,20.066,50.0795826,C,Kraków,Kraków,Kraków,MAŁOPOLSKIE
212146934,19.9371941,50.0661944,C,Kraków,Kraków,Kraków,MAŁOPOLSKIE
212177114,19.9580277,50.0757215,C,Kraków,Kraków,Kraków,MAŁOPOLSKIE
212222431,19.9199993,50.0495552,C,Kraków,Kraków,Kraków,MAŁOPOLSKIE
212255394,19.895333,50.0710548,C,Kraków,Kraków,Kraków,MAŁOPOLSKIE
212265414,19.9449718,50.0645833,C,Kraków,Kraków,Kraków,MAŁOPOLSKIE
212267373,19.8916941,50.0532222,C,Kraków,Kraków,Kraków,MAŁOPOLSKIE
212277780,20.0193604,50.0856107,C,Kraków,Kraków,Kraków,MAŁOPOLSKIE
212281879,19.9794993,50.0687493,C,Kraków,Kraków,Kraków,MAŁOPOLSKIE
212289089,19.9416663,50.0599722,C,Kraków,Kraków,Kraków,MAŁOPOLSKIE
212300783,19.8484441,50.0805271,C,Kraków,Kraków,Kraków,MAŁOPOLSKIE
212303212,19.9268048,50.0195271,C,Kraków,Kraków,Kraków,MAŁOPOLSKIE
212310454,19.9126944,50.026166,C,Kraków,Kraków,Kraków,MAŁOPOLSKIE
212336963,20.0282771,50.0796937,C,Kraków,Kraków,Kraków,MAŁOPOLSKIE
212377399,19.9108888,50.0518333,C,Kraków,Kraków,Kraków,MAŁOPOLSKIE
207070285,19.936833,50.0289993,L,Kraków,Kraków,Kraków,MAŁOPOLSKIE
207097385,19.9571388,50.0574166,L,Kraków,Kraków,Kraków,MAŁOPOLSKIE
207110561,20.0528055,50.0686104,L,Kraków,Kraków,Kraków,MAŁOPOLSKIE
207123219,19.9438607,50.0704715,L,Kraków,Kraków,Kraków,MAŁOPOLSKIE
207130541,19.9040277,50.075166,L,Kraków,Kraków,Kraków,MAŁOPOLSKIE
207145643,19.8904996,50.0814993,L,Kraków,Kraków,Kraków,MAŁOPOLSKIE
207147435,20.0192493,50.0729993,L,Kraków,Kraków,Kraków,MAŁOPOLSKIE
207147987,19.9020277,50.0248882,L,Kraków,Kraków,Kraków,MAŁOPOLSKIE
207155838,20.0109722,50.038333,L,Kraków,Kraków,Kraków,MAŁOPOLSKIE
207156971,19.8921107,50.0872218,L,Kraków,Kraków,Kraków,MAŁOPOLSKIE
207166546,19.9110277,50.0238604,L,Kraków,Kraków,Kraków,MAŁOPOLSKIE
207168515,19.9664722,50.0272771,L,Kraków,Kraków,Kraków,MAŁOPOLSKIE
207179463,19.9441107,50.0611388,L,Kraków,Kraków,Kraków,MAŁOPOLSKIE
207186160,20.0179437,50.0850552,L,Kraków,Kraków,Kraków,MAŁOPOLSKIE
207194395,20.0320548,50.0383607,L,Kraków,Kraków,Kraków,MAŁOPOLSKIE
207199811,19.9433052,50.0417496,L,Kraków,Kraków,Kraków,MAŁOPOLSKIE
207212165,19.8753048,50.0383607,L,Kraków,Kraków,Kraków,MAŁOPOLSKIE
207213872,19.9034722,50.0688604,L,Kraków,Kraków,Kraków,MAŁOPOLSKIE
207216423,19.9299715,50.0601388,L,Kraków,Kraków,Kraków,MAŁOPOLSKIE
207217223,19.9263882,50.0506944,L,Kraków,Kraków,Kraków,MAŁOPOLSKIE
207217942,19.9451663,50.070416,L,Kraków,Kraków,Kraków,MAŁOPOLSKIE
207218655,19.9358052,50.0730548,L,Kraków,Kraków,Kraków,MAŁOPOLSKIE
207219177,19.9391941,50.066,L,Kraków,Kraków,Kraków,MAŁOPOLSKIE
207220049,19.9808882,50.0697771,L,Kraków,Kraków,Kraków,MAŁOPOLSKIE
207220299,19.943083,50.0585833,L,Kraków,Kraków,Kraków,MAŁOPOLSKIE
207241252,19.9551111,50.0638611,L,Kraków,Kraków,Kraków,MAŁOPOLSKIE
207243568,20.0188882,50.0843885,L,Kraków,Kraków,Kraków,MAŁOPOLSKIE
207247733,19.9653055,50.0666937,L,Kraków,Kraków,Kraków,MAŁOPOLSKIE
207248841,19.9834718,50.0474996,L,Kraków,Kraków,Kraków,MAŁOPOLSKIE
207273002,19.8900274,50.0986941,L,Kraków,Kraków,Kraków,MAŁOPOLSKIE
207292134,19.9752493,50.041083,L,Kraków,Kraków,Kraków,MAŁOPOLSKIE
207316108,19.9498885,50.0141111,L,Kraków,Kraków,Kraków,MAŁOPOLSKIE
207334513,19.9740826,50.0850552,L,Kraków,Kraków,Kraków,MAŁOPOLSKIE
207367181,20.00075,50.015,L,Kraków,Kraków,Kraków,MAŁOPOLSKIE
207375627,19.9653055,50.0666937,L,Kraków,Kraków,Kraków,MAŁOPOLSKIE
207376333,19.9115,50.0217215,L,Kraków,Kraków,Kraków,MAŁOPOLSKIE
207378077,19.9715826,50.0849441,L,Kraków,Kraków,Kraków,MAŁOPOLSKIE
207384791,19.9802493,50.0201104,L,Kraków,Kraków,Kraków,MAŁOPOLSKIE
207388892,20.0359718,50.0734993,L,Kraków,Kraków,Kraków,MAŁOPOLSKIE
207404040,19.9653333,50.0666937,L,Kraków,Kraków,Kraków,MAŁOPOLSKIE
207406218,20.0393052,50.094833,L,Kraków,Kraków,Kraków,MAŁOPOLSKIE
212002786,19.9248048,50.0457218,L,Kraków,Kraków,Kraków,MAŁOPOLSKIE
212039634,19.9708326,50.0840274,L,Kraków,Kraków,Kraków,MAŁOPOLSKIE
212040129,19.9498052,50.0687771,L,Kraków,Kraków,Kraków,MAŁOPOLSKIE
212040427,19.8886107,50.0065833,L,Kraków,Kraków,Kraków,MAŁOPOLSKIE
212040905,19.9288882,50.0760826,L,Kraków,Kraków,Kraków,MAŁOPOLSKIE
212076906,19.9030833,50.0666111,L,Kraków,Kraków,Kraków,MAŁOPOLSKIE
212083296,19.9556388,50.0675548,L,Kraków,Kraków,Kraków,MAŁOPOLSKIE
212093708,19.9254993,50.036833,L,Kraków,Kraków,Kraków,MAŁOPOLSKIE
212096706,19.987333,50.0200271,L,Kraków,Kraków,Kraków,MAŁOPOLSKIE
212107005,20.0499441,50.0692215,L,Kraków,Kraków,Kraków,MAŁOPOLSKIE
212109436,19.9149166,50.027916,L,Kraków,Kraków,Kraków,MAŁOPOLSKIE
212110450,20.0435274,50.0077222,L,Kraków,Kraków,Kraków,MAŁOPOLSKIE
212120940,19.892583,50.0714715,L,Kraków,Kraków,Kraków,MAŁOPOLSKIE
212139684,19.9742493,50.0263882,L,Kraków,Kraków,Kraków,MAŁOPOLSKIE
212141800,19.9261937,50.0694437,L,Kraków,Kraków,Kraków,MAŁOPOLSKIE
212142297,19.9386385,50.0677215,L,Kraków,Kraków,Kraków,MAŁOPOLSKIE
212145035,19.9351663,50.0638888,L,Kraków,Kraków,Kraków,MAŁOPOLSKIE
212145966,19.9605555,50.0622777,L,Kraków,Kraków,Kraków,MAŁOPOLSKIE
212154208,19.9929718,50.0651666,L,Kraków,Kraków,Kraków,MAŁOPOLSKIE
212154375,19.9358885,50.072416,L,Kraków,Kraków,Kraków,MAŁOPOLSKIE
212173475,19.9574166,50.0804437,L,Kraków,Kraków,Kraków,MAŁOPOLSKIE
212178847,20.017916,50.0850552,L,Kraków,Kraków,Kraków,MAŁOPOLSKIE
212189751,19.8872496,50.0685548,L,Kraków,Kraków,Kraków,MAŁOPOLSKIE
212193089,20.0412774,50.0730271,L,Kraków,Kraków,Kraków,MAŁOPOLSKIE
212239734,19.9790548,50.0233604,L,Kraków,Kraków,Kraków,MAŁOPOLSKIE
212241482,19.9332493,50.0715826,L,Kraków,Kraków,Kraków,MAŁOPOLSKIE
212252108,19.9429996,50.1081666,L,Kraków,Kraków,Kraków,MAŁOPOLSKIE
212254939,19.9638333,50.0711104,L,Kraków,Kraków,Kraków,MAŁOPOLSKIE
212263411,19.9474718,50.0474163,L,Kraków,Kraków,Kraków,MAŁOPOLSKIE
212270605,19.9814437,50.0858052,L,Kraków,Kraków,Kraków,MAŁOPOLSKIE
212270725,19.9749437,50.0290271,L,Kraków,Kraków,Kraków,MAŁOPOLSKIE
212284596,19.9677215,50.0889718,L,Kraków,Kraków,Kraków,MAŁOPOLSKIE
212288641,19.8891941,49.9834163,L,Kraków,Kraków,Kraków,MAŁOPOLSKIE
212303609,19.946333,50.0529444,L,Kraków,Kraków,Kraków,MAŁOPOLSKIE
212308595,19.9751382,50.028916,L,Kraków,Kraków,Kraków,MAŁOPOLSKIE
212310456,19.9488052,50.0782771,L,Kraków,Kraków,Kraków,MAŁOPOLSKIE
212310714,19.972916,50.0809715,L,Kraków,Kraków,Kraków,MAŁOPOLSKIE
212320389,20.0094444,50.011,L,Kraków,Kraków,Kraków,MAŁOPOLSKIE
212338070,20.0420274,50.0125277,L,Kraków,Kraków,Kraków,MAŁOPOLSKIE
212338774,19.8778604,50.0065555,L,Kraków,Kraków,Kraków,MAŁOPOLSKIE
212004535,19.947083,50.0438607,C,Kraków,Kraków,Kraków,MAŁOPOLSKIE
212026706,19.9096666,50.0728048,C,Kraków,Kraków,Kraków,MAŁOPOLSKIE
212090737,19.9681382,50.0687771,C,Kraków,Kraków,Kraków,MAŁOPOLSKIE
212098052,19.9451107,50.0717215,C,Kraków,Kraków,Kraków,MAŁOPOLSKIE
212106761,19.9277493,50.0638888,C,Kraków,Kraków,Kraków,MAŁOPOLSKIE
212106842,20.017916,50.0850552,C,Kraków,Kraków,Kraków,MAŁOPOLSKIE
212139128,19.9465552,50.070916,C,Kraków,Kraków,Kraków,MAŁOPOLSKIE
212140367,19.9983052,50.0811104,C,Kraków,Kraków,Kraków,MAŁOPOLSKIE
212160935,19.9054166,50.0271104,C,Kraków,Kraków,Kraków,MAŁOPOLSKIE
212167256,19.9073055,50.0508055,C,Kraków,Kraków,Kraków,MAŁOPOLSKIE
212204069,19.945333,50.0645555,C,Kraków,Kraków,Kraków,MAŁOPOLSKIE
212235193,19.8997774,50.0223326,C,Kraków,Kraków,Kraków,MAŁOPOLSKIE
212268005,20.0074722,50.0871941,C,Kraków,Kraków,Kraków,MAŁOPOLSKIE
212272545,20.0288326,50.0846107,C,Kraków,Kraków,Kraków,MAŁOPOLSKIE
212278857,19.9530833,50.068916,C,Kraków,Kraków,Kraków,MAŁOPOLSKIE
212285653,19.9182215,50.0524722,C,Kraków,Kraków,Kraków,MAŁOPOLSKIE
212342239,19.9616111,50.0046111,C,Kraków,Kraków,Kraków,MAŁOPOLSKIE
207153979,19.9795548,50.0629722,L,Kraków,Kraków,Kraków,MAŁOPOLSKIE
207154355,19.9235271,50.0558055,L,Kraków,Kraków,Kraków,MAŁOPOLSKIE
207158136,20.0467218,50.0452218,L,Kraków,Kraków,Kraków,MAŁOPOLSKIE
207166537,19.9421107,50.0484163,L,Kraków,Kraków,Kraków,MAŁOPOLSKIE
207172171,19.9585833,50.0571666,L,Kraków,Kraków,Kraków,MAŁOPOLSKIE
207172494,19.8903885,50.0717215,L,Kraków,Kraków,Kraków,MAŁOPOLSKIE
207182618,19.9586666,50.0651666,L,Kraków,Kraków,Kraków,MAŁOPOLSKIE
207191551,19.908,50.0510555,L,Kraków,Kraków,Kraków,MAŁOPOLSKIE
207194157,19.9524166,50.0458052,L,Kraków,Kraków,Kraków,MAŁOPOLSKIE
207205698,19.9428052,50.0614444,L,Kraków,Kraków,Kraków,MAŁOPOLSKIE
207216290,19.9311104,50.0725548,L,Kraków,Kraków,Kraków,MAŁOPOLSKIE
207218359,19.848333,50.0833048,L,Kraków,Kraków,Kraków,MAŁOPOLSKIE
207222054,19.9892774,50.0526111,L,Kraków,Kraków,Kraków,MAŁOPOLSKIE
207236050,20.1022777,50.05975,L,Kraków,Kraków,Kraków,MAŁOPOLSKIE
207263368,19.9503888,50.0435274,L,Kraków,Kraków,Kraków,MAŁOPOLSKIE
207286146,20.0076666,50.0936385,L,Kraków,Kraków,Kraków,MAŁOPOLSKIE
207288342,19.9238326,50.0591388,L,Kraków,Kraków,Kraków,MAŁOPOLSKIE
207291473,19.9783604,50.0256104,L,Kraków,Kraków,Kraków,MAŁOPOLSKIE
207299090,19.9750826,50.0929996,L,Kraków,Kraków,Kraków,MAŁOPOLSKIE
207316485,19.9320271,50.0484718,L,Kraków,Kraków,Kraków,MAŁOPOLSKIE
207357743,20.0517222,50.032916,L,Kraków,Kraków,Kraków,MAŁOPOLSKIE
207364040,19.9155,50.0942774,L,Kraków,Kraków,Kraków,MAŁOPOLSKIE
207367480,20.0425552,50.0733604,L,Kraków,Kraków,Kraków,MAŁOPOLSKIE
207371226,19.9627222,50.0675826,L,Kraków,Kraków,Kraków,MAŁOPOLSKIE
207377423,20.1005277,50.0700271,L,Kraków,Kraków,Kraków,MAŁOPOLSKIE
207378912,19.9463885,50.0572222,L,Kraków,Kraków,Kraków,MAŁOPOLSKIE
207379963,19.934333,50.0600277,L,Kraków,Kraków,Kraków,MAŁOPOLSKIE
207389236,19.9588055,50.0739715,L,Kraków,Kraków,Kraków,MAŁOPOLSKIE
207407468,19.8923885,50.080916,L,Kraków,Kraków,Kraków,MAŁOPOLSKIE
207416854,19.9449163,50.0645833,L,Kraków,Kraków,Kraków,MAŁOPOLSKIE
207427199,19.9133888,50.0568055,L,Kraków,Kraków,Kraków,MAŁOPOLSKIE
211997276,20.0043611,50.0699715,L,Kraków,Kraków,Kraków,MAŁOPOLSKIE
212007099,19.892333,50.0808882,L,Kraków,Kraków,Kraków,MAŁOPOLSKIE
207090801,19.9419441,50.0656666,L,Kraków,Kraków,Kraków,MAŁOPOLSKIE
207100969,20.0073055,50.0872218,L,Kraków,Kraków,Kraków,MAŁOPOLSKIE
207116750,20.0457496,50.0696104,L,Kraków,Kraków,Kraków,MAŁOPOLSKIE
207136750,19.9329993,50.0634722,L,Kraków,Kraków,Kraków,MAŁOPOLSKIE
207150902,19.9528611,50.0652777,L,Kraków,Kraków,Kraków,MAŁOPOLSKIE
207152230,19.9302493,50.048083,L,Kraków,Kraków,Kraków,MAŁOPOLSKIE
212035765,19.9123055,50.0614722,L,Kraków,Kraków,Kraków,MAŁOPOLSKIE
212061058,19.9404996,50.0526388,L,Kraków,Kraków,Kraków,MAŁOPOLSKIE
212076576,19.9639722,50.0666111,L,Kraków,Kraków,Kraków,MAŁOPOLSKIE
212078694,20.0133611,50.098083,L,Kraków,Kraków,Kraków,MAŁOPOLSKIE
212078838,20.00375,50.0671937,L,Kraków,Kraków,Kraków,MAŁOPOLSKIE
212080116,19.8921107,50.0872218,L,Kraków,Kraków,Kraków,MAŁOPOLSKIE
212099783,19.8981107,49.9846107,L,Kraków,Kraków,Kraków,MAŁOPOLSKIE
212109438,19.9986941,50.0877774,L,Kraków,Kraków,Kraków,MAŁOPOLSKIE
212111054,19.9311104,50.0517222,L,Kraków,Kraków,Kraków,MAŁOPOLSKIE
207154271,19.9739715,50.0809437,L,Kraków,Kraków,Kraków,MAŁOPOLSKIE
207154568,19.9416663,50.0633611,L,Kraków,Kraków,Kraków,MAŁOPOLSKIE
207156677,19.9871663,50.0863607,L,Kraków,Kraków,Kraków,MAŁOPOLSKIE
207157419,19.9323882,50.0605,L,Kraków,Kraków,Kraków,MAŁOPOLSKIE
207163414,19.9071666,50.0123055,L,Kraków,Kraków,Kraków,MAŁOPOLSKIE
207164300,19.9298604,50.0661944,L,Kraków,Kraków,Kraków,MAŁOPOLSKIE
207180197,20.0237493,50.0664166,L,Kraków,Kraków,Kraków,MAŁOPOLSKIE
207182629,19.9369718,50.0501666,L,Kraków,Kraków,Kraków,MAŁOPOLSKIE
207186156,19.9357774,50.0734437,L,Kraków,Kraków,Kraków,MAŁOPOLSKIE
212122773,19.8544444,50.0568333,L,Kraków,Kraków,Kraków,MAŁOPOLSKIE
212123043,19.884583,50.0762771,L,Kraków,Kraków,Kraków,MAŁOPOLSKIE
212128838,19.9157777,50.0505833,L,Kraków,Kraków,Kraków,MAŁOPOLSKIE
212128907,20.0413607,50.0100833,L,Kraków,Kraków,Kraków,MAŁOPOLSKIE
212141857,19.9211937,50.032916,L,Kraków,Kraków,Kraków,MAŁOPOLSKIE
212145484,19.9976107,50.0552222,L,Kraków,Kraków,Kraków,MAŁOPOLSKIE
212146332,19.9683048,50.0436663,L,Kraków,Kraków,Kraków,MAŁOPOLSKIE
212164594,19.9400274,50.0366385,L,Kraków,Kraków,Kraków,MAŁOPOLSKIE
212166460,19.9476385,50.0981107,L,Kraków,Kraków,Kraków,MAŁOPOLSKIE
212183981,19.975416,50.0555277,L,Kraków,Kraków,Kraków,MAŁOPOLSKIE
212189918,19.9099166,50.0115,L,Kraków,Kraków,Kraków,MAŁOPOLSKIE
212222210,19.9529166,50.0687493,L,Kraków,Kraków,Kraków,MAŁOPOLSKIE
212230054,20.00375,50.067166,L,Kraków,Kraków,Kraków,MAŁOPOLSKIE
212234854,19.9118333,50.0311382,L,Kraków,Kraków,Kraków,MAŁOPOLSKIE
212243258,19.9384163,50.0333048,L,Kraków,Kraków,Kraków,MAŁOPOLSKIE
212257139,19.9459996,50.0559444,L,Kraków,Kraków,Kraków,MAŁOPOLSKIE
212267518,19.9707215,50.0331382,L,Kraków,Kraków,Kraków,MAŁOPOLSKIE
212277794,19.9344996,50.0648611,L,Kraków,Kraków,Kraków,MAŁOPOLSKIE
207191303,19.9962218,50.0549166,L,Kraków,Kraków,Kraków,MAŁOPOLSKIE
207195263,19.9831382,50.0716104,L,Kraków,Kraków,Kraków,MAŁOPOLSKIE
207200898,19.9364996,50.0692771,L,Kraków,Kraków,Kraków,MAŁOPOLSKIE
207208630,20.0698326,50.0401941,L,Kraków,Kraków,Kraków,MAŁOPOLSKIE
207210314,20.0130833,50.0961385,L,Kraków,Kraków,Kraków,MAŁOPOLSKIE
207240448,19.9286104,50.0273604,L,Kraków,Kraków,Kraków,MAŁOPOLSKIE
207241152,19.9315548,50.0485552,L,Kraków,Kraków,Kraków,MAŁOPOLSKIE
207244927,19.9893885,50.0526666,L,Kraków,Kraków,Kraków,MAŁOPOLSKIE
207253003,19.927166,50.0453607,L,Kraków,Kraków,Kraków,MAŁOPOLSKIE
212281741,20.0142222,50.0934996,L,Kraków,Kraków,Kraków,MAŁOPOLSKIE
212287605,19.9608333,49.9821937,L,Kraków,Kraków,Kraków,MAŁOPOLSKIE
212294645,19.9024444,50.0625833,L,Kraków,Kraków,Kraków,MAŁOPOLSKIE
212296790,20.0011944,50.0874163,L,Kraków,Kraków,Kraków,MAŁOPOLSKIE
212303116,19.9424718,50.0645,L,Kraków,Kraków,Kraków,MAŁOPOLSKIE
212327044,20.0500833,50.0758048,L,Kraków,Kraków,Kraków,MAŁOPOLSKIE
212331703,19.9677215,50.0950552,L,Kraków,Kraków,Kraków,MAŁOPOLSKIE
212333823,19.8829437,50.064,L,Kraków,Kraków,Kraków,MAŁOPOLSKIE
212335883,19.9804437,50.0499163,L,Kraków,Kraków,Kraków,MAŁOPOLSKIE
207254422,20.0465552,50.0451107,L,Kraków,Kraków,Kraków,MAŁOPOLSKIE
207295606,19.9050277,50.0176382,L,Kraków,Kraków,Kraków,MAŁOPOLSKIE
207295980,19.9193048,49.9855274,L,Kraków,Kraków,Kraków,MAŁOPOLSKIE
207296568,19.8884163,50.0762771,L,Kraków,Kraków,Kraków,MAŁOPOLSKIE
207298462,19.96475,50.0722771,L,Kraków,Kraków,Kraków,MAŁOPOLSKIE
207319079,19.9240271,50.056,L,Kraków,Kraków,Kraków,MAŁOPOLSKIE
207350741,19.9293048,50.0600555,L,Kraków,Kraków,Kraków,MAŁOPOLSKIE
207366037,19.9707215,50.033166,L,Kraków,Kraków,Kraków,MAŁOPOLSKIE
207367174,19.9472218,50.0277215,L,Kraków,Kraków,Kraków,MAŁOPOLSKIE
212346703,20.0365274,50.0726937,L,Kraków,Kraków,Kraków,MAŁOPOLSKIE
212354590,19.9705548,50.0606666,L,Kraków,Kraków,Kraków,MAŁOPOLSKIE
207370375,19.8091388,50.0137777,L,Kraków,Kraków,Kraków,MAŁOPOLSKIE
207372198,19.9618611,50.0849441,L,Kraków,Kraków,Kraków,MAŁOPOLSKIE
207375130,19.9293048,50.0666937,L,Kraków,Kraków,Kraków,MAŁOPOLSKIE
207395348,19.943833,50.0704715,L,Kraków,Kraków,Kraków,MAŁOPOLSKIE
207395362,20.0130277,50.0961107,L,Kraków,Kraków,Kraków,MAŁOPOLSKIE
207411559,19.9522222,50.0678048,L,Kraków,Kraków,Kraków,MAŁOPOLSKIE
207411610,19.9788604,50.0251104,L,Kraków,Kraków,Kraków,MAŁOPOLSKIE
212047737,19.9146388,50.0138055,L,Kraków,Kraków,Kraków,MAŁOPOLSKIE
212062942,19.9879718,50.0204715,L,Kraków,Kraków,Kraków,MAŁOPOLSKIE
212069511,20.0459441,50.0443052,L,Kraków,Kraków,Kraków,MAŁOPOLSKIE
212080739,19.8948607,50.0711104,L,Kraków,Kraków,Kraków,MAŁOPOLSKIE
212089461,19.9274715,50.077166,L,Kraków,Kraków,Kraków,MAŁOPOLSKIE
212093701,19.9786104,50.0573055,L,Kraków,Kraków,Kraków,MAŁOPOLSKIE
212117271,19.9011111,50.0523611,L,Kraków,Kraków,Kraków,MAŁOPOLSKIE
212129821,19.9090277,50.0479718,L,Kraków,Kraków,Kraków,MAŁOPOLSKIE
212131247,19.9436385,50.0703882,L,Kraków,Kraków,Kraków,MAŁOPOLSKIE
212161042,20.00375,50.0671937,L,Kraków,Kraków,Kraków,MAŁOPOLSKIE
212169295,20.0142222,50.0777771,L,Kraków,Kraków,Kraków,MAŁOPOLSKIE
212184008,19.9593055,50.0546388,L,Kraków,Kraków,Kraków,MAŁOPOLSKIE
212199937,19.9547777,50.0864163,L,Kraków,Kraków,Kraków,MAŁOPOLSKIE
212237966,20.0326382,50.0819715,L,Kraków,Kraków,Kraków,MAŁOPOLSKIE
212246907,20.0308604,50.0474996,L,Kraków,Kraków,Kraków,MAŁOPOLSKIE
212252954,19.8775271,50.0746104,L,Kraków,Kraków,Kraków,MAŁOPOLSKIE
212255858,20.0649722,50.0715548,L,Kraków,Kraków,Kraków,MAŁOPOLSKIE
212265832,19.9850552,50.0736382,L,Kraków,Kraków,Kraków,MAŁOPOLSKIE
212276034,19.9340552,50.0567777,L,Kraków,Kraków,Kraków,MAŁOPOLSKIE
212282668,19.9178882,50.0448607,L,Kraków,Kraków,Kraków,MAŁOPOLSKIE
212289190,19.9342218,50.0888607,L,Kraków,Kraków,Kraków,MAŁOPOLSKIE
212296223,19.9836385,50.045333,L,Kraków,Kraków,Kraków,MAŁOPOLSKIE
212300814,19.9354718,50.0498885,L,Kraków,Kraków,Kraków,MAŁOPOLSKIE
212304770,19.96025,50.085333,L,Kraków,Kraków,Kraków,MAŁOPOLSKIE
212308156,19.970916,50.0446107,L,Kraków,Kraków,Kraków,MAŁOPOLSKIE
212309040,20.0247493,50.0819437,L,Kraków,Kraków,Kraków,MAŁOPOLSKIE
212318149,19.9447496,50.0519444,L,Kraków,Kraków,Kraków,MAŁOPOLSKIE
212347083,19.8810826,50.0074166,L,Kraków,Kraków,Kraków,MAŁOPOLSKIE
212352658,19.90975,50.0518055,L,Kraków,Kraków,Kraków,MAŁOPOLSKIE
212357920,20.029471,50.078132,L,Kraków,Kraków,Kraków,MAŁOPOLSKIE
207103884,20.3846385,49.6984441,C,Stara Wieś,Limanowa,limanowski,MAŁOPOLSKIE
212126524,20.3791937,49.7574166,C,Stara Wieś,Limanowa,limanowski,MAŁOPOLSKIE
207215994,20.10625,49.6573333,L,Mszana Górna,Mszana Dolna,limanowski,MAŁOPOLSKIE
212308392,20.3232493,49.7217215,C,Tymbark,Tymbark,limanowski,MAŁOPOLSKIE
207291061,20.040907,50.457247,C,Rogów,Kozłów,miechowski,MAŁOPOLSKIE
207240163,20.1065833,49.898333,L,Niezdów,Dobczyce,myślenicki,MAŁOPOLSKIE
207397599,19.9126944,49.6797215,C,Krzeczów,Lubień,myślenicki,MAŁOPOLSKIE
207177718,19.9114444,49.680166,L,Krzeczów,Lubień,myślenicki,MAŁOPOLSKIE
212248372,19.9763048,49.7166937,L,Krzeczów,Lubień,myślenicki,MAŁOPOLSKIE
207153031,19.9382496,49.6293326,C,Krzeczów,Lubień,myślenicki,MAŁOPOLSKIE
207167990,20.0041666,49.8500833,C,Błąd w danych źródłowych,Myślenice,myślenicki,MAŁOPOLSKIE
212302434,20.016792,49.835018,C,Błąd w danych źródłowych,Myślenice,myślenicki,MAŁOPOLSKIE
207183313,20.0141666,49.8100833,C,Błąd w danych źródłowych,Myślenice,myślenicki,MAŁOPOLSKIE
207367754,20.0165833,49.8351385,L,Błąd w danych źródłowych,Myślenice,myślenicki,MAŁOPOLSKIE
212311339,20.0072777,49.7886107,S,Błąd w danych źródłowych,Myślenice,myślenicki,MAŁOPOLSKIE
212035275,19.9455274,49.8318604,C,Myślenice,Myślenice,myślenicki,MAŁOPOLSKIE
207245699,19.9178048,49.8322771,L,Myślenice,Myślenice,myślenicki,MAŁOPOLSKIE
207149474,19.9373052,49.8331937,C,Myślenice,Myślenice,myślenicki,MAŁOPOLSKIE
207379236,19.9053611,49.829666,L,Myślenice,Myślenice,myślenicki,MAŁOPOLSKIE
212171323,19.9324993,49.8186104,L,Myślenice,Myślenice,myślenicki,MAŁOPOLSKIE
207250225,19.9476663,49.821666,L,Myślenice,Myślenice,myślenicki,MAŁOPOLSKIE
207361829,19.9368052,49.8353607,L,Myślenice,Myślenice,myślenicki,MAŁOPOLSKIE
207227224,20.00775,49.7516388,L,Pcim,Pcim,myślenicki,MAŁOPOLSKIE
207171331,19.9664166,49.7684993,L,Pcim,Pcim,myślenicki,MAŁOPOLSKIE
212107156,19.9260271,49.7950274,L,Pcim,Pcim,myślenicki,MAŁOPOLSKIE
207251756,20.1151666,49.8516388,C,Czasław,Raciechowice,myślenicki,MAŁOPOLSKIE
207287416,20.2239993,49.8316382,S,Czasław,Raciechowice,myślenicki,MAŁOPOLSKIE
212020149,19.974416,49.8961663,C,Siepraw,Siepraw,myślenicki,MAŁOPOLSKIE
212192095,19.7959718,49.8632222,C,Biertowice,Sułkowice,myślenicki,MAŁOPOLSKIE
212314104,19.801097,49.816911,C,Biertowice,Sułkowice,myślenicki,MAŁOPOLSKIE
207240330,19.7998885,49.8529444,L,Sułkowice,Sułkowice,myślenicki,MAŁOPOLSKIE
207159574,19.8818326,49.7328326,L,Tokarnia,Tokarnia,myślenicki,MAŁOPOLSKIE
207279785,20.6548055,49.6306937,C,Chełmiec,Chełmiec,nowosądecki,MAŁOPOLSKIE
212242268,20.7519166,49.6621388,C,Chełmiec,Chełmiec,nowosądecki,MAŁOPOLSKIE
207393011,20.6880274,49.6709437,C,Chełmiec,Chełmiec,nowosądecki,MAŁOPOLSKIE
212317630,20.666666,49.6200271,L,Chełmiec,Chełmiec,nowosądecki,MAŁOPOLSKIE
212279659,20.6193048,49.6351107,L,Chełmiec,Chełmiec,nowosądecki,MAŁOPOLSKIE
207218643,20.5970552,49.6545833,C,Chełmiec,Chełmiec,nowosądecki,MAŁOPOLSKIE
207410446,20.7874996,49.6335274,C,Chełmiec,Chełmiec,nowosądecki,MAŁOPOLSKIE
212276500,20.7591388,49.6358607,L,Chełmiec,Chełmiec,nowosądecki,MAŁOPOLSKIE
212377124,20.6673048,49.6334163,L,Chełmiec,Chełmiec,nowosądecki,MAŁOPOLSKIE
207165403,20.6252771,49.6666388,L,Chełmiec,Chełmiec,nowosądecki,MAŁOPOLSKIE
207096554,20.6501388,49.6208604,L,Chełmiec,Chełmiec,nowosądecki,MAŁOPOLSKIE
207165207,20.6616388,49.6303326,L,Chełmiec,Chełmiec,nowosądecki,MAŁOPOLSKIE
212097114,20.6501111,49.6271937,L,Chełmiec,Chełmiec,nowosądecki,MAŁOPOLSKIE
207277934,20.7889163,49.6190548,L,Chełmiec,Chełmiec,nowosądecki,MAŁOPOLSKIE
207385523,20.7497774,49.6575,L,Chełmiec,Chełmiec,nowosądecki,MAŁOPOLSKIE
212123798,20.6674437,49.622666,C,Chełmiec,Chełmiec,nowosądecki,MAŁOPOLSKIE
212030599,20.6575277,49.6362218,L,Chełmiec,Chełmiec,nowosądecki,MAŁOPOLSKIE
212197733,20.6673604,49.6336107,L,Chełmiec,Chełmiec,nowosądecki,MAŁOPOLSKIE
212311258,20.9506111,49.6269993,L,Grybów,Grybów,nowosądecki,MAŁOPOLSKIE
207171299,20.9436941,49.5631388,C,Binczarowa,Grybów,nowosądecki,MAŁOPOLSKIE
212273968,20.8396941,49.6163333,L,Binczarowa,Grybów,nowosądecki,MAŁOPOLSKIE
211991608,20.9764437,49.6644444,L,Binczarowa,Grybów,nowosądecki,MAŁOPOLSKIE
212111865,20.7319437,49.7389441,C,Gródek nad Dunajcem,Gródek nad Dunajcem,nowosądecki,MAŁOPOLSKIE
207237010,20.7494163,49.7165555,C,Gródek nad Dunajcem,Gródek nad Dunajcem,nowosądecki,MAŁOPOLSKIE
212358100,20.7733326,49.7522777,L,Gródek nad Dunajcem,Gródek nad Dunajcem,nowosądecki,MAŁOPOLSKIE
212137762,20.6842774,49.7093055,L,Gródek nad Dunajcem,Gródek nad Dunajcem,nowosądecki,MAŁOPOLSKIE
207246926,20.8100833,49.5841385,L,Królowa Polska,Kamionka Wielka,nowosądecki,MAŁOPOLSKIE
212063836,20.7760826,49.599333,L,Królowa Polska,Kamionka Wielka,nowosądecki,MAŁOPOLSKIE
212271285,20.7543055,49.5777493,C,Królowa Polska,Kamionka Wielka,nowosądecki,MAŁOPOLSKIE
212276593,20.7938885,49.595583,C,Królowa Polska,Kamionka Wielka,nowosądecki,MAŁOPOLSKIE
212083653,20.7485274,49.5844441,L,Królowa Polska,Kamionka Wielka,nowosądecki,MAŁOPOLSKIE
207209259,20.7691937,49.5750826,L,Królowa Polska,Kamionka Wielka,nowosądecki,MAŁOPOLSKIE
207293876,20.7777771,49.5911107,L,Królowa Polska,Kamionka Wielka,nowosądecki,MAŁOPOLSKIE
207187853,20.8531944,49.7476663,C,Bukowiec,Korzenna,nowosądecki,MAŁOPOLSKIE
212279041,20.8696104,49.6837774,L,Bukowiec,Korzenna,nowosądecki,MAŁOPOLSKIE
207218150,20.9446107,49.4016111,L,Krynica-Zdrój,Krynica-Zdrój,nowosądecki,MAŁOPOLSKIE
207169785,20.9535833,49.4240271,C,Krynica-Zdrój,Krynica-Zdrój,nowosądecki,MAŁOPOLSKIE
212114982,20.9860552,49.4235271,C,Krynica-Zdrój,Krynica-Zdrój,nowosądecki,MAŁOPOLSKIE
212313897,20.9584722,49.4228048,L,Krynica-Zdrój,Krynica-Zdrój,nowosądecki,MAŁOPOLSKIE
207184121,20.9566111,49.4111111,L,Krynica-Zdrój,Krynica-Zdrój,nowosądecki,MAŁOPOLSKIE
207388612,20.9862218,49.4236937,L,Krynica-Zdrój,Krynica-Zdrój,nowosądecki,MAŁOPOLSKIE
212335926,20.9781104,49.4146388,L,Krynica-Zdrój,Krynica-Zdrój,nowosądecki,MAŁOPOLSKIE
212288258,21.0199437,49.4643055,L,Czyrna,Krynica-Zdrój,nowosądecki,MAŁOPOLSKIE
212255551,21.0235826,49.3949996,L,Czyrna,Krynica-Zdrój,nowosądecki,MAŁOPOLSKIE
212306039,20.9075277,49.5305548,L,Kotów,Łabowa,nowosądecki,MAŁOPOLSKIE
212321668,20.8447774,49.5325271,C,Kotów,Łabowa,nowosądecki,MAŁOPOLSKIE
212128729,20.6210271,49.7401663,L,Łososina Dolna,Łososina Dolna,nowosądecki,MAŁOPOLSKIE
212163595,20.5941941,49.7352774,L,Łososina Dolna,Łososina Dolna,nowosądecki,MAŁOPOLSKIE
207315510,20.6324993,49.7503611,C,Łososina Dolna,Łososina Dolna,nowosądecki,MAŁOPOLSKIE
212109590,20.6391941,49.7272215,L,Łososina Dolna,Łososina Dolna,nowosądecki,MAŁOPOLSKIE
207237441,20.5035277,49.5243326,C,Brzyna,Łącko,nowosądecki,MAŁOPOLSKIE
207379938,20.4878607,49.5387774,L,Brzyna,Łącko,nowosądecki,MAŁOPOLSKIE
212135150,20.5051666,49.5239993,L,Brzyna,Łącko,nowosądecki,MAŁOPOLSKIE
207237720,20.9010833,49.3854718,L,Złockie,Muszyna,nowosądecki,MAŁOPOLSKIE
212264122,20.8855552,49.3649444,L,Złockie,Muszyna,nowosądecki,MAŁOPOLSKIE
207387406,20.792833,49.3668604,C,Złockie,Muszyna,nowosądecki,MAŁOPOLSKIE
212132950,20.8005,49.3471107,L,Złockie,Muszyna,nowosądecki,MAŁOPOLSKIE
207162886,20.8933052,49.3521388,C,Muszyna,Muszyna,nowosądecki,MAŁOPOLSKIE
212136273,20.9263048,49.3650277,L,Muszyna,Muszyna,nowosądecki,MAŁOPOLSKIE
212331093,20.9232771,49.3710548,L,Muszyna,Muszyna,nowosądecki,MAŁOPOLSKIE
212297395,20.7472218,49.5623055,C,Nawojowa,Nawojowa,nowosądecki,MAŁOPOLSKIE
212092692,20.7372218,49.5573333,L,Nawojowa,Nawojowa,nowosądecki,MAŁOPOLSKIE
207175155,20.7502777,49.5658611,L,Nawojowa,Nawojowa,nowosądecki,MAŁOPOLSKIE
212101465,20.7132222,49.4379718,C,Piwniczna-Zdrój,Piwniczna-Zdrój,nowosądecki,MAŁOPOLSKIE
207371424,20.7283882,49.4216104,L,Piwniczna-Zdrój,Piwniczna-Zdrój,nowosądecki,MAŁOPOLSKIE
212264920,20.8115277,49.4309437,L,Piwniczna-Zdrój,Piwniczna-Zdrój,nowosądecki,MAŁOPOLSKIE
207181263,20.7126944,49.4329437,L,Piwniczna-Zdrój,Piwniczna-Zdrój,nowosądecki,MAŁOPOLSKIE
207277222,20.6713882,49.4301104,L,Piwniczna-Zdrój,Piwniczna-Zdrój,nowosądecki,MAŁOPOLSKIE
212112975,20.7255548,49.4254715,C,Piwniczna-Zdrój,Piwniczna-Zdrój,nowosądecki,MAŁOPOLSKIE
212262665,20.704,49.4497218,C,Piwniczna-Zdrój,Piwniczna-Zdrój,nowosądecki,MAŁOPOLSKIE
212272091,20.6414441,49.6007777,L,Podrzecze,Podegrodzie,nowosądecki,MAŁOPOLSKIE
212111532,20.5646944,49.5538611,L,Podrzecze,Podegrodzie,nowosądecki,MAŁOPOLSKIE
207232096,20.5632777,49.5822215,L,Podrzecze,Podegrodzie,nowosądecki,MAŁOPOLSKIE
207287399,20.5708604,49.5525833,L,Podrzecze,Podegrodzie,nowosądecki,MAŁOPOLSKIE
212344513,20.6798882,49.489583,L,Rytro,Rytro,nowosądecki,MAŁOPOLSKIE
207150409,20.6812215,49.4877774,C,Rytro,Rytro,nowosądecki,MAŁOPOLSKIE
212096737,20.6516944,49.4870552,C,Rytro,Rytro,nowosądecki,MAŁOPOLSKIE
212303458,20.6763882,49.4982218,C,Rytro,Rytro,nowosądecki,MAŁOPOLSKIE
207320324,20.6830548,49.4836107,L,Rytro,Rytro,nowosądecki,MAŁOPOLSKIE
212294476,20.6979163,49.4705271,C,Rytro,Rytro,nowosądecki,MAŁOPOLSKIE
212291070,20.6590833,49.5555833,C,Stary Sącz,Stary Sącz,nowosądecki,MAŁOPOLSKIE
207178597,20.6333607,49.563,C,Stary Sącz,Stary Sącz,nowosądecki,MAŁOPOLSKIE
207101887,20.6514444,49.5473607,L,Stary Sącz,Stary Sącz,nowosądecki,MAŁOPOLSKIE
212298771,20.6474163,49.5413052,L,Stary Sącz,Stary Sącz,nowosądecki,MAŁOPOLSKIE
212104252,20.5788882,49.5180548,C,Stary Sącz,Stary Sącz,nowosądecki,MAŁOPOLSKIE
207209010,20.5233882,49.5235548,L,Stary Sącz,Stary Sącz,nowosądecki,MAŁOPOLSKIE
212137425,20.6877218,49.5646944,L,Stary Sącz,Stary Sącz,nowosądecki,MAŁOPOLSKIE
207362025,20.6549166,49.5435274,L,Stary Sącz,Stary Sącz,nowosądecki,MAŁOPOLSKIE
207301553,19.8168326,49.3716382,C,Chochołów,Czarny Dunajec,nowotarski,MAŁOPOLSKIE
207226002,19.8693048,49.4399718,C,Chochołów,Czarny Dunajec,nowotarski,MAŁOPOLSKIE
207202581,19.927889,49.362556,C,Chochołów,Czarny Dunajec,nowotarski,MAŁOPOLSKIE
212100322,19.9282215,49.3911663,C,Czerwienne,Czarny Dunajec,nowotarski,MAŁOPOLSKIE
212103611,19.8530277,49.4429996,L,Czerwienne,Czarny Dunajec,nowotarski,MAŁOPOLSKIE
212091944,19.8838885,49.4538888,C,Czerwienne,Czarny Dunajec,nowotarski,MAŁOPOLSKIE
212281947,20.3322215,49.4394996,C,Czorsztyn,Czorsztyn,nowotarski,MAŁOPOLSKIE
212166971,20.3020555,49.4458052,L,Czorsztyn,Czorsztyn,nowotarski,MAŁOPOLSKIE
212315182,19.6573888,49.5549166,L,Zubrzyca Górna,Jabłonka,nowotarski,MAŁOPOLSKIE
207311362,19.6737493,49.5253048,S,Zubrzyca Górna,Jabłonka,nowotarski,MAŁOPOLSKIE
207245696,20.3506666,49.4246382,C,Hałuszowa,Krościenko nad Dunajcem,nowotarski,MAŁOPOLSKIE
212200788,20.2924718,49.3759715,L,Kacwin,Łapsze Niżne,nowotarski,MAŁOPOLSKIE
207201249,20.2948052,49.3685826,L,Kacwin,Łapsze Niżne,nowotarski,MAŁOPOLSKIE
207333313,20.0298048,49.4807771,C,Nowy Targ,Nowy Targ,nowotarski,MAŁOPOLSKIE
207383580,20.0584444,49.8023333,C,Nowy Targ,Nowy Targ,nowotarski,MAŁOPOLSKIE
207141495,20.010996,49.474019,C,Nowy Targ,Nowy Targ,nowotarski,MAŁOPOLSKIE
207382946,20.027666,49.4856663,L,Nowy Targ,Nowy Targ,nowotarski,MAŁOPOLSKIE
207338767,20.0280826,49.4745548,L,Nowy Targ,Nowy Targ,nowotarski,MAŁOPOLSKIE
212295583,19.9765548,49.4679437,C,Ludźmierz,Nowy Targ,nowotarski,MAŁOPOLSKIE
207209050,20.0789437,49.483333,C,Ludźmierz,Nowy Targ,nowotarski,MAŁOPOLSKIE
212096742,20.0982218,49.471916,L,Ludźmierz,Nowy Targ,nowotarski,MAŁOPOLSKIE
207173547,19.9456385,49.4479996,L,Ludźmierz,Nowy Targ,nowotarski,MAŁOPOLSKIE
207181819,19.975403,49.453045,C,Ludźmierz,Nowy Targ,nowotarski,MAŁOPOLSKIE
207188785,19.9753882,49.4527777,C,Ludźmierz,Nowy Targ,nowotarski,MAŁOPOLSKIE
207047475,19.9492218,49.60375,C,Rabka-Zdrój,Rabka-Zdrój,nowotarski,MAŁOPOLSKIE
207188953,19.9463052,49.6103611,C,Rabka-Zdrój,Rabka-Zdrój,nowotarski,MAŁOPOLSKIE
212196182,19.8159166,49.5755826,L,Spytkowice,Spytkowice,nowotarski,MAŁOPOLSKIE
207370022,20.0260826,49.4231937,L,Szaflary,Szaflary,nowotarski,MAŁOPOLSKIE
207389180,20.4451107,49.4275271,L,Szczawnica,Szczawnica,nowotarski,MAŁOPOLSKIE
207237353,20.7133055,49.6161388,C,Nowy Sącz,Nowy Sącz,Nowy Sącz,MAŁOPOLSKIE
212205619,20.7450552,49.6210826,C,Nowy Sącz,Nowy Sącz,Nowy Sącz,MAŁOPOLSKIE
212293691,20.687833,49.6035,C,Nowy Sącz,Nowy Sącz,Nowy Sącz,MAŁOPOLSKIE
207174894,20.7239715,49.5901941,L,Nowy Sącz,Nowy Sącz,Nowy Sącz,MAŁOPOLSKIE
207226328,20.691333,49.6293882,L,Nowy Sącz,Nowy Sącz,Nowy Sącz,MAŁOPOLSKIE
207229519,20.7019444,49.6069722,L,Nowy Sącz,Nowy Sącz,Nowy Sącz,MAŁOPOLSKIE
207251224,20.7288604,49.5797771,L,Nowy Sącz,Nowy Sącz,Nowy Sącz,MAŁOPOLSKIE
212095920,20.6718882,49.6409996,L,Nowy Sącz,Nowy Sącz,Nowy Sącz,MAŁOPOLSKIE
212142265,20.7005833,49.5920552,L,Nowy Sącz,Nowy Sącz,Nowy Sącz,MAŁOPOLSKIE
212297767,20.6861385,49.6011111,L,Nowy Sącz,Nowy Sącz,Nowy Sącz,MAŁOPOLSKIE
212298774,20.7022222,49.6200548,L,Nowy Sącz,Nowy Sącz,Nowy Sącz,MAŁOPOLSKIE
207148162,20.7394996,49.6224437,C,Nowy Sącz,Nowy Sącz,Nowy Sącz,MAŁOPOLSKIE
207177710,20.6940552,49.6307215,C,Nowy Sącz,Nowy Sącz,Nowy Sącz,MAŁOPOLSKIE
207192842,20.71175,49.6330271,C,Nowy Sącz,Nowy Sącz,Nowy Sącz,MAŁOPOLSKIE
212051846,20.7222215,49.6132222,C,Nowy Sącz,Nowy Sącz,Nowy Sącz,MAŁOPOLSKIE
207105361,20.6942496,49.608,L,Nowy Sącz,Nowy Sącz,Nowy Sącz,MAŁOPOLSKIE
207135957,20.7231382,49.6122777,L,Nowy Sącz,Nowy Sącz,Nowy Sącz,MAŁOPOLSKIE
207198862,20.6984441,49.6248604,C,Nowy Sącz,Nowy Sącz,Nowy Sącz,MAŁOPOLSKIE
212109588,20.730416,49.6314715,C,Nowy Sącz,Nowy Sącz,Nowy Sącz,MAŁOPOLSKIE
212260615,20.7160833,49.6183048,C,Nowy Sącz,Nowy Sącz,Nowy Sącz,MAŁOPOLSKIE
212275529,20.7222215,49.61325,C,Nowy Sącz,Nowy Sącz,Nowy Sącz,MAŁOPOLSKIE
212289927,20.6966663,49.60375,C,Nowy Sącz,Nowy Sącz,Nowy Sącz,MAŁOPOLSKIE
212324998,20.6980274,49.6145,L,Nowy Sącz,Nowy Sącz,Nowy Sącz,MAŁOPOLSKIE
207105408,20.7258326,49.6100833,L,Nowy Sącz,Nowy Sącz,Nowy Sącz,MAŁOPOLSKIE
207132024,20.6978052,49.6015555,L,Nowy Sącz,Nowy Sącz,Nowy Sącz,MAŁOPOLSKIE
207166225,20.720416,49.6146388,L,Nowy Sącz,Nowy Sącz,Nowy Sącz,MAŁOPOLSKIE
207252962,20.7069166,49.6244993,L,Nowy Sącz,Nowy Sącz,Nowy Sącz,MAŁOPOLSKIE
212079460,20.689583,49.6131666,L,Nowy Sącz,Nowy Sącz,Nowy Sącz,MAŁOPOLSKIE
207245665,19.449444,50.299965,L,Bolesław,Bolesław,olkuski,MAŁOPOLSKIE
212347518,19.6055555,50.3369163,L,Jaroszowiec,Klucze,olkuski,MAŁOPOLSKIE
212266548,19.5979718,50.2573611,L,Osiek,Olkusz,olkuski,MAŁOPOLSKIE
212257213,19.7552777,50.3793326,L,Wolbrom,Wolbrom,olkuski,MAŁOPOLSKIE
212037433,19.7546388,50.3909996,L,Wolbrom,Wolbrom,olkuski,MAŁOPOLSKIE
207132524,19.138583,49.970166,L,Brzeszcze,Brzeszcze,oświęcimski,MAŁOPOLSKIE
207387771,19.148083,50.0052777,C,Brzeszcze,Brzeszcze,oświęcimski,MAŁOPOLSKIE
212272821,19.2412774,50.0693882,C,Bobrek,Chełmek,oświęcimski,MAŁOPOLSKIE
212215743,19.2312493,50.086333,C,Bobrek,Chełmek,oświęcimski,MAŁOPOLSKIE
212180263,19.2646944,50.0541944,S,Bobrek,Chełmek,oświęcimski,MAŁOPOLSKIE
207147371,19.2538055,50.0308882,C,Oświęcim,Oświęcim,oświęcimski,MAŁOPOLSKIE
207208925,19.1957496,50.0354441,C,Oświęcim,Oświęcim,oświęcimski,MAŁOPOLSKIE
207214323,19.2535833,50.038833,L,Oświęcim,Oświęcim,oświęcimski,MAŁOPOLSKIE
207249016,19.2409718,50.0285826,L,Oświęcim,Oświęcim,oświęcimski,MAŁOPOLSKIE
212116354,19.2049722,50.0292215,L,Oświęcim,Oświęcim,oświęcimski,MAŁOPOLSKIE
212150990,19.2050277,50.0334718,L,Oświęcim,Oświęcim,oświęcimski,MAŁOPOLSKIE
212160257,19.2202493,50.030916,L,Oświęcim,Oświęcim,oświęcimski,MAŁOPOLSKIE
212315576,19.2196382,50.0313882,L,Oświęcim,Oświęcim,oświęcimski,MAŁOPOLSKIE
207245143,19.2308048,50.0246104,L,Oświęcim,Oświęcim,oświęcimski,MAŁOPOLSKIE
212148953,19.2424163,50.0311937,L,Oświęcim,Oświęcim,oświęcimski,MAŁOPOLSKIE
212190691,19.2318604,50.0361107,L,Oświęcim,Oświęcim,oświęcimski,MAŁOPOLSKIE
212154497,19.2196382,50.0312493,L,Oświęcim,Oświęcim,oświęcimski,MAŁOPOLSKIE
212245608,19.2044166,50.0369996,L,Oświęcim,Oświęcim,oświęcimski,MAŁOPOLSKIE
212249754,19.1977774,50.0391107,L,Oświęcim,Oświęcim,oświęcimski,MAŁOPOLSKIE
207298078,19.2316104,50.0382496,L,Oświęcim,Oświęcim,oświęcimski,MAŁOPOLSKIE
212061529,19.2428885,50.0283326,L,Oświęcim,Oświęcim,oświęcimski,MAŁOPOLSKIE
212227605,19.2387774,50.0357218,L,Oświęcim,Oświęcim,oświęcimski,MAŁOPOLSKIE
212057952,19.2795271,50.0074166,L,Poręba Wielka,Oświęcim,oświęcimski,MAŁOPOLSKIE
207213214,19.4046111,50.0443885,L,Poręba Wielka,Oświęcim,oświęcimski,MAŁOPOLSKIE
207289742,19.4540277,50.0153611,C,Podolsze,Zator,oświęcimski,MAŁOPOLSKIE
207302672,19.4346663,49.9944996,C,Zator,Zator,oświęcimski,MAŁOPOLSKIE
212133010,20.2133055,50.2021388,L,Przesławice,Koniusza,proszowicki,MAŁOPOLSKIE
207179257,20.3061944,50.1894441,C,Proszowice,Proszowice,proszowicki,MAŁOPOLSKIE
212114513,20.1794437,50.2518055,L,Łętkowice-Kolonia,Radziemice,proszowicki,MAŁOPOLSKIE
207099655,19.6719715,49.7298048,C,Maków Podhalański,Maków Podhalański,suski,MAŁOPOLSKIE
212099275,19.6674715,49.7307493,L,Maków Podhalański,Maków Podhalański,suski,MAŁOPOLSKIE
212178788,19.526688,49.733604,C,Stryszawa,Stryszawa,suski,MAŁOPOLSKIE
212084616,19.569439,49.737377,C,Sucha Beskidzka,Sucha Beskidzka,suski,MAŁOPOLSKIE
207151585,19.606258,49.738911,L,Sucha Beskidzka,Sucha Beskidzka,suski,MAŁOPOLSKIE
207383846,19.592033,49.784058,L,Zembrzyce,Zembrzyce,suski,MAŁOPOLSKIE
207120630,20.9670826,49.7653055,C,Zborowice,Ciężkowice,tarnowski,MAŁOPOLSKIE
207215166,20.9623055,49.7606388,C,Zborowice,Ciężkowice,tarnowski,MAŁOPOLSKIE
207150150,20.9593888,49.8413607,C,Gromnik,Gromnik,tarnowski,MAŁOPOLSKIE
212151322,21.1464718,50.098333,L,Nowe Żukowice,Lisia Góra,tarnowski,MAŁOPOLSKIE
212132333,21.1034444,50.1064722,S,Nowe Żukowice,Lisia Góra,tarnowski,MAŁOPOLSKIE
212309436,21.144583,49.8576111,C,Ryglice,Ryglice,tarnowski,MAŁOPOLSKIE
212008627,21.1441941,49.8128055,C,Olszyny,Rzepiennik Strzyżewski,tarnowski,MAŁOPOLSKIE
207133964,20.9256104,49.9604444,C,Koszyce Małe,Tarnów,tarnowski,MAŁOPOLSKIE
212092103,20.9372496,49.9817215,L,Koszyce Małe,Tarnów,tarnowski,MAŁOPOLSKIE
207383322,20.9915552,49.9714437,L,Koszyce Małe,Tarnów,tarnowski,MAŁOPOLSKIE
207285070,21.0585833,49.9111666,C,Tuchów,Tuchów,tarnowski,MAŁOPOLSKIE
207367558,20.8537222,50.036583,C,Wierzchosławice,Wierzchosławice,tarnowski,MAŁOPOLSKIE
212034853,20.8625,50.0171104,S,Wierzchosławice,Wierzchosławice,tarnowski,MAŁOPOLSKIE
212036913,20.8343607,49.9549444,C,Wojnicz,Wojnicz,tarnowski,MAŁOPOLSKIE
212059125,20.8109444,49.8713604,C,Roztoka,Zakliczyn,tarnowski,MAŁOPOLSKIE
207319035,20.8130277,49.874166,C,Roztoka,Zakliczyn,tarnowski,MAŁOPOLSKIE
207213578,20.920666,50.0741937,C,Łęg Tarnowski,Żabno,tarnowski,MAŁOPOLSKIE
212082407,20.9265548,50.1089722,C,Łęg Tarnowski,Żabno,tarnowski,MAŁOPOLSKIE
207144923,21.0155277,50.0177771,C,Tarnów,Tarnów,Tarnów,MAŁOPOLSKIE
207145185,20.9852496,50.0214715,C,Tarnów,Tarnów,Tarnów,MAŁOPOLSKIE
207299484,20.9812771,50.0352774,C,Tarnów,Tarnów,Tarnów,MAŁOPOLSKIE
207193164,20.9997774,50.017916,L,Tarnów,Tarnów,Tarnów,MAŁOPOLSKIE
207283898,20.9722215,50.0064166,L,Tarnów,Tarnów,Tarnów,MAŁOPOLSKIE
212303823,21.0131944,50.0257493,L,Tarnów,Tarnów,Tarnów,MAŁOPOLSKIE
212353796,20.9275826,49.9974996,L,Tarnów,Tarnów,Tarnów,MAŁOPOLSKIE
207178187,20.9984163,50.021416,L,Tarnów,Tarnów,Tarnów,MAŁOPOLSKIE
207209631,20.985833,49.9967774,C,Tarnów,Tarnów,Tarnów,MAŁOPOLSKIE
207416605,21.0031388,50.031166,C,Tarnów,Tarnów,Tarnów,MAŁOPOLSKIE
212233873,21.0042222,50.0355274,C,Tarnów,Tarnów,Tarnów,MAŁOPOLSKIE
212297335,21.0133055,50.0257771,C,Tarnów,Tarnów,Tarnów,MAŁOPOLSKIE
207284916,20.9219437,50.0027777,C,Tarnów,Tarnów,Tarnów,MAŁOPOLSKIE
212065653,20.9578333,50.0148055,L,Tarnów,Tarnów,Tarnów,MAŁOPOLSKIE
212335520,20.9565,50.0078055,L,Tarnów,Tarnów,Tarnów,MAŁOPOLSKIE
207283868,20.9580833,50.01475,L,Tarnów,Tarnów,Tarnów,MAŁOPOLSKIE
212173188,20.9157777,50.0110277,L,Tarnów,Tarnów,Tarnów,MAŁOPOLSKIE
212084573,20.0049166,49.36125,C,Biały Dunajec,Biały Dunajec,tatrzański,MAŁOPOLSKIE
212109717,20.0389996,49.3665555,C,Biały Dunajec,Biały Dunajec,tatrzański,MAŁOPOLSKIE
212339491,20.082433,49.416284,L,Groń,Bukowina Tatrzańska,tatrzański,MAŁOPOLSKIE
212162215,20.0983607,49.3344996,L,Groń,Bukowina Tatrzańska,tatrzański,MAŁOPOLSKIE
212134198,20.1559444,49.3136388,S,Groń,Bukowina Tatrzańska,tatrzański,MAŁOPOLSKIE
212087169,19.8711937,49.2753048,L,Kościelisko,Kościelisko,tatrzański,MAŁOPOLSKIE
212300437,19.9238326,49.290833,L,Kościelisko,Kościelisko,tatrzański,MAŁOPOLSKIE
212136970,19.8558333,49.2834441,L,Kościelisko,Kościelisko,tatrzański,MAŁOPOLSKIE
212307572,19.8870274,49.292583,C,Kościelisko,Kościelisko,tatrzański,MAŁOPOLSKIE
212280980,19.9043333,49.2781104,L,Kościelisko,Kościelisko,tatrzański,MAŁOPOLSKIE
207212241,19.8610277,49.279166,L,Kościelisko,Kościelisko,tatrzański,MAŁOPOLSKIE
212263675,19.8989996,49.2917496,L,Kościelisko,Kościelisko,tatrzański,MAŁOPOLSKIE
212284188,19.920916,49.2896385,L,Kościelisko,Kościelisko,tatrzański,MAŁOPOLSKIE
212333007,19.9214993,49.2898885,L,Kościelisko,Kościelisko,tatrzański,MAŁOPOLSKIE
212289196,19.8588611,49.2799715,L,Kościelisko,Kościelisko,tatrzański,MAŁOPOLSKIE
207156964,20.0069444,49.3389441,C,Poronin,Poronin,tatrzański,MAŁOPOLSKIE
207252553,20.0043333,49.3376663,C,Poronin,Poronin,tatrzański,MAŁOPOLSKIE
212117349,19.9078611,49.3077222,L,Poronin,Poronin,tatrzański,MAŁOPOLSKIE
212149032,19.9072777,49.3083055,L,Poronin,Poronin,tatrzański,MAŁOPOLSKIE
207248373,19.9529722,49.3246937,C,Poronin,Poronin,tatrzański,MAŁOPOLSKIE
212291381,19.9521666,49.3423885,L,Poronin,Poronin,tatrzański,MAŁOPOLSKIE
212296335,19.9628055,49.3067777,C,Zakopane,Zakopane,tatrzański,MAŁOPOLSKIE
207209438,19.9557222,49.2884996,L,Zakopane,Zakopane,tatrzański,MAŁOPOLSKIE
212139176,19.9780548,49.3157222,L,Zakopane,Zakopane,tatrzański,MAŁOPOLSKIE
207193874,19.9838607,49.2940552,L,Zakopane,Zakopane,tatrzański,MAŁOPOLSKIE
207257619,19.9810548,49.2744715,L,Zakopane,Zakopane,tatrzański,MAŁOPOLSKIE
207393718,19.9203326,49.283333,C,Zakopane,Zakopane,tatrzański,MAŁOPOLSKIE
212291737,19.9312493,49.293083,C,Zakopane,Zakopane,tatrzański,MAŁOPOLSKIE
212314136,19.9377496,49.3111111,C,Zakopane,Zakopane,tatrzański,MAŁOPOLSKIE
207323574,19.9589166,49.290083,L,Zakopane,Zakopane,tatrzański,MAŁOPOLSKIE
212119081,19.9769715,49.3165277,L,Zakopane,Zakopane,tatrzański,MAŁOPOLSKIE
212160003,19.95575,49.2884996,L,Zakopane,Zakopane,tatrzański,MAŁOPOLSKIE
212297420,19.9358052,49.2935552,L,Zakopane,Zakopane,tatrzański,MAŁOPOLSKIE
212109468,19.95225,49.2996385,L,Zakopane,Zakopane,tatrzański,MAŁOPOLSKIE
212120426,19.3474441,49.8321937,C,Sułkowice,Andrychów,wadowicki,MAŁOPOLSKIE
212307063,19.3271382,49.8141388,C,Sułkowice,Andrychów,wadowicki,MAŁOPOLSKIE
207146560,19.387333,49.8615277,L,Sułkowice,Andrychów,wadowicki,MAŁOPOLSKIE
207296643,19.40775,49.8666388,L,Sułkowice,Andrychów,wadowicki,MAŁOPOLSKIE
212162288,19.3799715,49.8525,S,Sułkowice,Andrychów,wadowicki,MAŁOPOLSKIE
207138217,19.5982496,49.9823882,C,Łączany,Brzeźnica,wadowicki,MAŁOPOLSKIE
212085996,19.6696937,49.9032777,C,Stanisław Dolny,Kalwaria Zebrzydowska,wadowicki,MAŁOPOLSKIE
207281809,19.6908607,49.9154444,L,Stanisław Dolny,Kalwaria Zebrzydowska,wadowicki,MAŁOPOLSKIE
207181781,19.6833048,49.833833,C,Stronie,Stryszów,wadowicki,MAŁOPOLSKIE
212315842,19.5778326,49.8406941,C,Stronie,Stryszów,wadowicki,MAŁOPOLSKIE
207181880,19.6599444,49.8275548,C,Stronie,Stryszów,wadowicki,MAŁOPOLSKIE
207129736,19.4980274,49.9100833,C,Tomice,Tomice,wadowicki,MAŁOPOLSKIE
207225522,19.5099444,49.918666,C,Tomice,Tomice,wadowicki,MAŁOPOLSKIE
207157646,19.46175,49.8778882,C,Chocznia,Wadowice,wadowicki,MAŁOPOLSKIE
207228579,19.5115,49.8521111,C,Chocznia,Wadowice,wadowicki,MAŁOPOLSKIE
207210363,19.5969996,49.9045277,L,Chocznia,Wadowice,wadowicki,MAŁOPOLSKIE
207093589,19.4988052,49.8757493,C,Wadowice,Wadowice,wadowicki,MAŁOPOLSKIE
207326139,19.50675,49.8766104,C,Wadowice,Wadowice,wadowicki,MAŁOPOLSKIE
212117267,19.380916,49.9389718,C,Gierałtowice,Wieprz,wadowicki,MAŁOPOLSKIE
207159950,19.4061666,49.8924163,L,Gierałtowice,Wieprz,wadowicki,MAŁOPOLSKIE
207133258,19.3800548,49.9069444,L,Gierałtowice,Wieprz,wadowicki,MAŁOPOLSKIE
207230023,20.1629166,49.9516666,L,Łazany,Biskupice,wielicki,MAŁOPOLSKIE
212078703,20.1505277,49.9571388,C,Łazany,Biskupice,wielicki,MAŁOPOLSKIE
207212522,20.1085555,49.9740548,L,Łazany,Biskupice,wielicki,MAŁOPOLSKIE
207363208,20.1994441,49.9058055,L,Gdów,Gdów,wielicki,MAŁOPOLSKIE
212174454,20.2065,49.9136111,L,Gdów,Gdów,wielicki,MAŁOPOLSKIE
212092240,20.2096944,49.9486663,L,Gdów,Gdów,wielicki,MAŁOPOLSKIE
207373076,20.2573888,50.0015555,S,Dąbrowa,Kłaj,wielicki,MAŁOPOLSKIE
207075612,20.3149722,49.9903052,L,Dąbrowa,Kłaj,wielicki,MAŁOPOLSKIE
207418271,20.2956385,49.9881107,C,Dąbrowa,Kłaj,wielicki,MAŁOPOLSKIE
212299214,20.2324993,49.9882496,L,Dąbrowa,Kłaj,wielicki,MAŁOPOLSKIE
212136827,20.1908052,50.0096944,C,Staniątki,Niepołomice,wielicki,MAŁOPOLSKIE
212043460,20.3257493,50.0558611,C,Staniątki,Niepołomice,wielicki,MAŁOPOLSKIE
207102033,20.2044722,50.0279437,L,Staniątki,Niepołomice,wielicki,MAŁOPOLSKIE
207228453,20.2175271,50.0386107,L,Staniątki,Niepołomice,wielicki,MAŁOPOLSKIE
207391267,20.2738048,50.0592777,L,Staniątki,Niepołomice,wielicki,MAŁOPOLSKIE
212149962,20.2173048,50.0459441,L,Niepołomice,Niepołomice,wielicki,MAŁOPOLSKIE
207413874,20.2008611,50.0356385,L,Niepołomice,Niepołomice,wielicki,MAŁOPOLSKIE
207204840,20.0709437,50.0169437,C,Kokotów,Wieliczka,wielicki,MAŁOPOLSKIE
207143398,20.1128611,50.0195271,C,Kokotów,Wieliczka,wielicki,MAŁOPOLSKIE
207308896,20.1109166,50.0148611,L,Kokotów,Wieliczka,wielicki,MAŁOPOLSKIE
207358982,20.0346663,49.9649722,L,Kokotów,Wieliczka,wielicki,MAŁOPOLSKIE
212327325,20.0654444,49.9872774,L,Wieliczka,Wieliczka,wielicki,MAŁOPOLSKIE
